{"type": "FeatureCollection", "crs": {"type": "name", "properties": {"name": "urn:ogc:def:crs:OGC:1.3:CRS84"}}, "properties": {"event": "HurricaneHelene-Oct24", "area": "spruce_pine", "model": "xview2_baseline:cmu-classifier (ResNet50+CNN, OSM footprints)", "pre_image": {"date": "2024-02-03", "source": "Maxar Open Data", "catalog_id": null, "gsd": null, "url": null}, "post_image": {"date": "2024-10-05", "source": "Maxar Open Data", "catalog_id": null, "gsd": null, "url": null}, "generated": "2026-08-29T14:44:58+00:00", "schema_version": "1.0", "tile_size": 1024, "notes": "Damage from the xView2 CMU baseline classifier (ResNet50-v1 + CNN head), trained on xBD; a per-building post-image classifier, not the 1st-place ensemble. Footprints are OpenStreetMap.", "counts": {"0": 104, "1": 33, "2": 1, "3": 1}, "n_buildings": 139, "runtime_sec": 23.9}, "features": [{"type": "Feature", "geometry": {"type": "Polygon", "coordinates": [[[-82.0672509, 35.913253400000016], [-82.0672652641568, 35.91316852361136], [-82.06787684217235, 35.91316308561627], [-82.0678503, 35.91331989999999], [-82.0672509, 35.913253400000016]]]}, "properties": {"id": "spruce_pine-000000", "damage_class": 0, "damage_label": "no-damage", "confidence": 1.0, "area_m2": 738.66, "centroid": [-82.067591, 35.913228]}}, {"type": "Feature", "geometry": {"type": "Polygon", "coordinates": [[[-82.0699558, 35.91595219999999], [-82.0700234, 35.9158651], [-82.07034130000001, 35.916027199999995], [-82.0702736, 35.9161142], [-82.0699558, 35.91595219999999]]]}, "properties": {"id": "spruce_pine-000001", "damage_class": 2, "damage_label": "major-damage", "confidence": 1.0, "area_m2": 386.67, "centroid": [-82.070149, 35.91599]}}, {"type": "Feature", "geometry": {"type": "Polygon", "coordinates": [[[-82.0788914, 35.9279661], [-82.0791665, 35.9278321], [-82.0791935, 35.92786839999999], [-82.0792129, 35.9278589], [-82.0792689, 35.92793410000001], [-82.0792431, 35.9279467], [-82.0792615, 35.9279713], [-82.0791949, 35.9280038], [-82.0792062, 35.92801899999999], [-82.079004, 35.92811759999999], [-82.0788914, 35.9279661]]]}, "properties": {"id": "spruce_pine-000002", "damage_class": 0, "damage_label": "no-damage", "confidence": 1.0, "area_m2": 570.68, "centroid": [-82.079086, 35.927972]}}, {"type": "Feature", "geometry": {"type": "Polygon", "coordinates": [[[-82.0746451, 35.9294041], [-82.0746503, 35.92918869999998], [-82.0748571, 35.92919199999999], [-82.0748519, 35.929407299999994], [-82.0746451, 35.9294041]]]}, "properties": {"id": "spruce_pine-000003", "damage_class": 0, "damage_label": "no-damage", "confidence": 1.0, "area_m2": 445.85, "centroid": [-82.074751, 35.929298]}}, {"type": "Feature", "geometry": {"type": "Polygon", "coordinates": [[[-82.05931160000002, 35.92965720000001], [-82.0591903, 35.92956439999999], [-82.0591, 35.92963219999999], [-82.059014, 35.92955899999999], [-82.0592058, 35.92940549999999], [-82.059424, 35.92957510000001], [-82.05931160000002, 35.92965720000001]]]}, "properties": {"id": "spruce_pine-000004", "damage_class": 0, "damage_label": "no-damage", "confidence": 1.0, "area_m2": 491.51, "centroid": [-82.05922, 35.92954]}}, {"type": "Feature", "geometry": {"type": "Polygon", "coordinates": [[[-82.06041950000001, 35.9137026], [-82.0602723, 35.91364230000001], [-82.0603842, 35.9134629], [-82.0605315, 35.9135232], [-82.06041950000001, 35.9137026]]]}, "properties": {"id": "spruce_pine-000005", "damage_class": 0, "damage_label": "no-damage", "confidence": 1.0, "area_m2": 331.99, "centroid": [-82.060402, 35.913583]}}, {"type": "Feature", "geometry": {"type": "Polygon", "coordinates": [[[-82.086779, 35.913442499999995], [-82.0868675, 35.913286099999986], [-82.08718670000002, 35.91341429999999], [-82.0870981, 35.9135685], [-82.086779, 35.913442499999995]]]}, "properties": {"id": "spruce_pine-000006", "damage_class": 0, "damage_label": "no-damage", "confidence": 1.0, "area_m2": 608.77, "centroid": [-82.086983, 35.913428]}}, {"type": "Feature", "geometry": {"type": "Polygon", "coordinates": [[[-82.0678654, 35.917862099999994], [-82.0678546, 35.91782729999999], [-82.0677447, 35.91784899999999], [-82.0677634, 35.91796200000001], [-82.0676776, 35.9179685], [-82.0676159, 35.9177839], [-82.067852, 35.917749099999995], [-82.06786270000002, 35.9177687], [-82.0679592, 35.91775350000001], [-82.0679807, 35.917849], [-82.0678654, 35.917862099999994]]]}, "properties": {"id": "spruce_pine-000007", "damage_class": 1, "damage_label": "minor-damage", "confidence": 1.0, "area_m2": 401.0, "centroid": [-82.067779, 35.917834]}}, {"type": "Feature", "geometry": {"type": "Polygon", "coordinates": [[[-82.063844, 35.9168536], [-82.0638494, 35.9166862], [-82.06405030000002, 35.916690499999994], [-82.0640448, 35.916857900000004], [-82.063844, 35.9168536]]]}, "properties": {"id": "spruce_pine-000008", "damage_class": 0, "damage_label": "no-damage", "confidence": 1.0, "area_m2": 336.76, "centroid": [-82.063947, 35.916772]}}, {"type": "Feature", "geometry": {"type": "Polygon", "coordinates": [[[-82.0759317, 35.91583109999999], [-82.075931, 35.9158565], [-82.076069, 35.9158589], [-82.0760674, 35.9159196], [-82.0758168, 35.91591539999999], [-82.07581900000001, 35.91582919999999], [-82.0759317, 35.91583109999999]]]}, "properties": {"id": "spruce_pine-000009", "damage_class": 1, "damage_label": "minor-damage", "confidence": 1.0, "area_m2": 181.16, "centroid": [-82.075932, 35.91588]}}, {"type": "Feature", "geometry": {"type": "Polygon", "coordinates": [[[-82.0748018, 35.9157331], [-82.0749378, 35.9157344], [-82.0749354, 35.91590000000001], [-82.0747994, 35.91589869999999], [-82.0748018, 35.9157331]]]}, "properties": {"id": "spruce_pine-000010", "damage_class": 0, "damage_label": "no-damage", "confidence": 1.0, "area_m2": 225.46, "centroid": [-82.074869, 35.915817]}}, {"type": "Feature", "geometry": {"type": "Polygon", "coordinates": [[[-82.0762803, 35.9164918], [-82.0762158, 35.9165806], [-82.0760384, 35.916496], [-82.0761029, 35.916407199999995], [-82.0762803, 35.9164918]]]}, "properties": {"id": "spruce_pine-000011", "damage_class": 0, "damage_label": "no-damage", "confidence": 1.0, "area_m2": 212.29, "centroid": [-82.076159, 35.916494]}}, {"type": "Feature", "geometry": {"type": "Polygon", "coordinates": [[[-82.0760814, 35.9167643], [-82.0760318, 35.916826199999996], [-82.0759791, 35.91679839999999], [-82.0758977, 35.91689989999999], [-82.07579690000001, 35.9168468], [-82.07592790000001, 35.9166836], [-82.0760814, 35.9167643]]]}, "properties": {"id": "spruce_pine-000012", "damage_class": 1, "damage_label": "minor-damage", "confidence": 1.0, "area_m2": 280.65, "centroid": [-82.075932, 35.91679]}}, {"type": "Feature", "geometry": {"type": "Polygon", "coordinates": [[[-82.0738983, 35.9147625], [-82.0739022, 35.9148599], [-82.073746, 35.914864], [-82.0737441, 35.914816699999996], [-82.0737589, 35.9148048], [-82.0737565, 35.91474409999999], [-82.0738101, 35.9147427], [-82.073811, 35.91476480000001], [-82.0738983, 35.9147625]]]}, "properties": {"id": "spruce_pine-000013", "damage_class": 0, "damage_label": "no-damage", "confidence": 1.0, "area_m2": 157.53, "centroid": [-82.073822, 35.91481]}}, {"type": "Feature", "geometry": {"type": "Polygon", "coordinates": [[[-82.0751724, 35.91575189999999], [-82.0751731, 35.915813299999996], [-82.07510810000001, 35.915813799999995], [-82.0751073, 35.915752499999996], [-82.0751724, 35.91575189999999]]]}, "properties": {"id": "spruce_pine-000014", "damage_class": 0, "damage_label": "no-damage", "confidence": 1.0, "area_m2": 39.95, "centroid": [-82.07514, 35.915783]}}, {"type": "Feature", "geometry": {"type": "Polygon", "coordinates": [[[-82.0753121, 35.9157305], [-82.0754052, 35.91573180000001], [-82.0754048, 35.9157473], [-82.0754259, 35.9157476], [-82.0754254, 35.9157689], [-82.0754077, 35.915768699999994], [-82.0754072, 35.9157922], [-82.0753108, 35.915790799999996], [-82.0753121, 35.9157305]]]}, "properties": {"id": "spruce_pine-000015", "damage_class": 0, "damage_label": "no-damage", "confidence": 1.0, "area_m2": 61.49, "centroid": [-82.075363, 35.915761]}}, {"type": "Feature", "geometry": {"type": "Polygon", "coordinates": [[[-82.0767155, 35.9175092], [-82.0767529, 35.9175898], [-82.0767693, 35.91758479999999], [-82.0767912, 35.91763189999999], [-82.0766675, 35.9176695], [-82.0766083, 35.917541799999995], [-82.0767155, 35.9175092]]]}, "properties": {"id": "spruce_pine-000016", "damage_class": 1, "damage_label": "minor-damage", "confidence": 1.0, "area_m2": 165.22, "centroid": [-82.076696, 35.917591]}}, {"type": "Feature", "geometry": {"type": "Polygon", "coordinates": [[[-82.0761084, 35.91677339999999], [-82.0762282, 35.916840799999996], [-82.0760921, 35.9169995], [-82.0759723, 35.916932100000004], [-82.0761084, 35.91677339999999]]]}, "properties": {"id": "spruce_pine-000017", "damage_class": 1, "damage_label": "minor-damage", "confidence": 1.0, "area_m2": 282.11, "centroid": [-82.0761, 35.916886]}}, {"type": "Feature", "geometry": {"type": "Polygon", "coordinates": [[[-82.076362, 35.916957599999996], [-82.0766035, 35.9171977], [-82.0764359, 35.917308299999995], [-82.0761943, 35.917068300000004], [-82.076362, 35.916957599999996]]]}, "properties": {"id": "spruce_pine-000018", "damage_class": 0, "damage_label": "no-damage", "confidence": 1.0, "area_m2": 670.33, "centroid": [-82.076399, 35.917133]}}, {"type": "Feature", "geometry": {"type": "Polygon", "coordinates": [[[-82.0755705, 35.9166042], [-82.0756795, 35.916624], [-82.0756483, 35.91673719999999], [-82.0755392, 35.91671739999999], [-82.0755705, 35.9166042]]]}, "properties": {"id": "spruce_pine-000019", "damage_class": 1, "damage_label": "minor-damage", "confidence": 1.0, "area_m2": 129.75, "centroid": [-82.075609, 35.916671]}}, {"type": "Feature", "geometry": {"type": "Polygon", "coordinates": [[[-82.07577200000001, 35.91669710000001], [-82.0758278, 35.916726000000004], [-82.0757709, 35.91679810000001], [-82.0757151, 35.91676919999999], [-82.07577200000001, 35.91669710000001]]]}, "properties": {"id": "spruce_pine-000020", "damage_class": 1, "damage_label": "minor-damage", "confidence": 1.0, "area_m2": 56.73, "centroid": [-82.075771, 35.916748]}}, {"type": "Feature", "geometry": {"type": "Polygon", "coordinates": [[[-82.075405, 35.917013999999995], [-82.0753936, 35.9170499], [-82.0755666, 35.917085799999995], [-82.0755281, 35.9172073], [-82.0755528, 35.91721239999999], [-82.0755419, 35.91724690000001], [-82.0755178, 35.9172419], [-82.075513, 35.917257], [-82.0754227, 35.91723819999999], [-82.0754168, 35.91725670000001], [-82.0753233, 35.91723720000001], [-82.0753302, 35.91721549999999], [-82.0751747, 35.917183200000004], [-82.0752392, 35.916979600000005], [-82.075405, 35.917013999999995]]]}, "properties": {"id": "spruce_pine-000021", "damage_class": 1, "damage_label": "minor-damage", "confidence": 1.0, "area_m2": 703.65, "centroid": [-82.075368, 35.917129]}}, {"type": "Feature", "geometry": {"type": "Polygon", "coordinates": [[[-82.0754734, 35.917327699999994], [-82.0754542, 35.917407399999995], [-82.0750753, 35.91734749999999], [-82.0750907, 35.91728350000001], [-82.0752926, 35.9173154], [-82.0752963, 35.9172998], [-82.0754734, 35.917327699999994]]]}, "properties": {"id": "spruce_pine-000022", "damage_class": 0, "damage_label": "no-damage", "confidence": 1.0, "area_m2": 280.77, "centroid": [-82.075284, 35.917343]}}, {"type": "Feature", "geometry": {"type": "Polygon", "coordinates": [[[-82.0745585, 35.9168774], [-82.0746993, 35.91688940000001], [-82.0746893, 35.916966699999996], [-82.0745484, 35.91695469999999], [-82.0745585, 35.9168774]]]}, "properties": {"id": "spruce_pine-000023", "damage_class": 0, "damage_label": "no-damage", "confidence": 1.0, "area_m2": 110.18, "centroid": [-82.074624, 35.916922]}}, {"type": "Feature", "geometry": {"type": "Polygon", "coordinates": [[[-82.0747379, 35.9173098], [-82.0747315, 35.91742250000001], [-82.0745267, 35.917414900000004], [-82.0745331, 35.917302199999995], [-82.0747379, 35.9173098]]]}, "properties": {"id": "spruce_pine-000024", "damage_class": 0, "damage_label": "no-damage", "confidence": 1.0, "area_m2": 231.51, "centroid": [-82.074632, 35.917362]}}, {"type": "Feature", "geometry": {"type": "Polygon", "coordinates": [[[-82.07506310000001, 35.917650200000004], [-82.0750166, 35.91778180000001], [-82.0748829, 35.9177508], [-82.0749295, 35.9176192], [-82.07506310000001, 35.917650200000004]]]}, "properties": {"id": "spruce_pine-000025", "damage_class": 1, "damage_label": "minor-damage", "confidence": 1.0, "area_m2": 190.49, "centroid": [-82.074973, 35.917701]}}, {"type": "Feature", "geometry": {"type": "Polygon", "coordinates": [[[-82.0749342, 35.9177695], [-82.0749245, 35.91779559999999], [-82.0748607, 35.91778000000001], [-82.0748704, 35.9177539], [-82.0749342, 35.9177695]]]}, "properties": {"id": "spruce_pine-000026", "damage_class": 1, "damage_label": "minor-damage", "confidence": 1.0, "area_m2": 18.18, "centroid": [-82.074897, 35.917775]}}, {"type": "Feature", "geometry": {"type": "Polygon", "coordinates": [[[-82.0758634, 35.9174793], [-82.0759333, 35.9175258], [-82.0758835, 35.917574900000005], [-82.0758136, 35.9175284], [-82.0758634, 35.9174793]]]}, "properties": {"id": "spruce_pine-000027", "damage_class": 1, "damage_label": "minor-damage", "confidence": 1.0, "area_m2": 57.53, "centroid": [-82.075873, 35.917527]}}, {"type": "Feature", "geometry": {"type": "Polygon", "coordinates": [[[-82.0759446, 35.9176872], [-82.0759273, 35.917674000000005], [-82.075967, 35.9176397], [-82.0761099, 35.91774829999999], [-82.0760565, 35.9177945], [-82.0760372, 35.917779799999984], [-82.0760088, 35.91780440000001], [-82.0759024, 35.91772360000001], [-82.0759446, 35.9176872]]]}, "properties": {"id": "spruce_pine-000028", "damage_class": 1, "damage_label": "minor-damage", "confidence": 1.0, "area_m2": 169.42, "centroid": [-82.076001, 35.917728]}}, {"type": "Feature", "geometry": {"type": "Polygon", "coordinates": [[[-82.0758042, 35.9177647], [-82.0757725, 35.9177424], [-82.0757984, 35.917718300000004], [-82.07583, 35.9177406], [-82.0758042, 35.9177647]]]}, "properties": {"id": "spruce_pine-000029", "damage_class": 1, "damage_label": "minor-damage", "confidence": 1.0, "area_m2": 13.4, "centroid": [-82.075801, 35.917742]}}, {"type": "Feature", "geometry": {"type": "Polygon", "coordinates": [[[-82.075967, 35.9180215], [-82.0759029, 35.91798850000001], [-82.0758508, 35.91805509999999], [-82.0757501, 35.91800340000001], [-82.07583950000001, 35.9178891], [-82.0760044, 35.91797379999999], [-82.075967, 35.9180215]]]}, "properties": {"id": "spruce_pine-000030", "damage_class": 0, "damage_label": "no-damage", "confidence": 1.0, "area_m2": 204.41, "centroid": [-82.075868, 35.917974]}}, {"type": "Feature", "geometry": {"type": "Polygon", "coordinates": [[[-82.0762799, 35.917994500000006], [-82.0763426, 35.918015699999984], [-82.0762636, 35.91816939999998], [-82.0762008, 35.918148300000006], [-82.0762799, 35.917994500000006]]]}, "properties": {"id": "spruce_pine-000031", "damage_class": 0, "damage_label": "no-damage", "confidence": 1.0, "area_m2": 113.3, "centroid": [-82.076272, 35.918082]}}, {"type": "Feature", "geometry": {"type": "Polygon", "coordinates": [[[-82.0757239, 35.9184389], [-82.0756053, 35.91839409999999], [-82.0756388, 35.91833580000001], [-82.07575750000001, 35.9183806], [-82.0757239, 35.9184389]]]}, "properties": {"id": "spruce_pine-000032", "damage_class": 1, "damage_label": "minor-damage", "confidence": 1.0, "area_m2": 84.28, "centroid": [-82.075681, 35.918387]}}, {"type": "Feature", "geometry": {"type": "Polygon", "coordinates": [[[-82.0744657, 35.91791179999999], [-82.0745148, 35.917962], [-82.0744747, 35.9179877], [-82.0744256, 35.9179375], [-82.0744657, 35.91791179999999]]]}, "properties": {"id": "spruce_pine-000033", "damage_class": 0, "damage_label": "no-damage", "confidence": 1.0, "area_m2": 32.78, "centroid": [-82.07447, 35.91795]}}, {"type": "Feature", "geometry": {"type": "Polygon", "coordinates": [[[-82.0749023, 35.91790629999999], [-82.0748954, 35.917911399999994], [-82.0749396, 35.9179509], [-82.07486660000001, 35.9180045], [-82.0748258, 35.917967999999995], [-82.0748066, 35.917981999999995], [-82.0747412, 35.9179236], [-82.0748403, 35.91785089999998], [-82.0749023, 35.91790629999999]]]}, "properties": {"id": "spruce_pine-000034", "damage_class": 1, "damage_label": "minor-damage", "confidence": 1.0, "area_m2": 153.73, "centroid": [-82.074842, 35.91793]}}, {"type": "Feature", "geometry": {"type": "Polygon", "coordinates": [[[-82.0743729, 35.9181164], [-82.074305, 35.91816809999999], [-82.0742963, 35.91816059999999], [-82.0742659, 35.9181837], [-82.0741771, 35.918107299999996], [-82.0742753, 35.9180324], [-82.0743729, 35.9181164]]]}, "properties": {"id": "spruce_pine-000035", "damage_class": 0, "damage_label": "no-damage", "confidence": 1.0, "area_m2": 151.35, "centroid": [-82.074275, 35.91811]}}, {"type": "Feature", "geometry": {"type": "Polygon", "coordinates": [[[-82.0741918, 35.918263300000014], [-82.0741621, 35.91823719999999], [-82.07421640000001, 35.918196800000004], [-82.0742461, 35.918223000000005], [-82.0741918, 35.918263300000014]]]}, "properties": {"id": "spruce_pine-000036", "damage_class": 1, "damage_label": "minor-damage", "confidence": 1.0, "area_m2": 26.21, "centroid": [-82.074204, 35.91823]}}, {"type": "Feature", "geometry": {"type": "Polygon", "coordinates": [[[-82.0736985, 35.918414799999994], [-82.073759, 35.918379099999996], [-82.0737808, 35.9184034], [-82.0737204, 35.91843909999999], [-82.0736985, 35.918414799999994]]]}, "properties": {"id": "spruce_pine-000037", "damage_class": 1, "damage_label": "minor-damage", "confidence": 1.0, "area_m2": 22.51, "centroid": [-82.07374, 35.918409]}}, {"type": "Feature", "geometry": {"type": "Polygon", "coordinates": [[[-82.0760337, 35.918380500000005], [-82.076273, 35.9183516], [-82.0763274, 35.91864669999999], [-82.0761855, 35.91866389999999], [-82.0761945, 35.9187128], [-82.0761512, 35.918718], [-82.0761975, 35.9189694], [-82.0759965, 35.9189937], [-82.0760046, 35.919038099999995], [-82.0759397, 35.91904589999999], [-82.0759164, 35.918919300000006], [-82.0759796, 35.91891170000001], [-82.0759399, 35.9186962], [-82.07599060000001, 35.91869010000001], [-82.0759488, 35.918463599999995], [-82.0760469, 35.91845180000001], [-82.0760337, 35.918380500000005]]]}, "properties": {"id": "spruce_pine-000038", "damage_class": 0, "damage_label": "no-damage", "confidence": 1.0, "area_m2": 1673.08, "centroid": [-82.076106, 35.918665]}}, {"type": "Feature", "geometry": {"type": "Polygon", "coordinates": [[[-82.0757421, 35.918950900000006], [-82.0759126, 35.91892909999999], [-82.0759475, 35.919107], [-82.0757769, 35.9191289], [-82.0757421, 35.918950900000006]]]}, "properties": {"id": "spruce_pine-000039", "damage_class": 0, "damage_label": "no-damage", "confidence": 1.0, "area_m2": 311.38, "centroid": [-82.075845, 35.919029]}}, {"type": "Feature", "geometry": {"type": "Polygon", "coordinates": [[[-82.0754294, 35.9191863], [-82.0753908, 35.9192349], [-82.0753426, 35.919209800000004], [-82.0753811, 35.91916119999999], [-82.0754294, 35.9191863]]]}, "properties": {"id": "spruce_pine-000040", "damage_class": 0, "damage_label": "no-damage", "confidence": 1.0, "area_m2": 33.15, "centroid": [-82.075386, 35.919198]}}, {"type": "Feature", "geometry": {"type": "Polygon", "coordinates": [[[-82.0753109, 35.9190809], [-82.0753921, 35.918982800000016], [-82.0754839, 35.91903270000001], [-82.0754027, 35.919130800000005], [-82.0753109, 35.9190809]]]}, "properties": {"id": "spruce_pine-000041", "damage_class": 0, "damage_label": "no-damage", "confidence": 1.0, "area_m2": 130.69, "centroid": [-82.075397, 35.919057]}}, {"type": "Feature", "geometry": {"type": "Polygon", "coordinates": [[[-82.0752241, 35.91872759999999], [-82.0752903, 35.9187578], [-82.0752284, 35.91884689999999], [-82.0751622, 35.9188168], [-82.0752241, 35.91872759999999]]]}, "properties": {"id": "spruce_pine-000042", "damage_class": 1, "damage_label": "minor-damage", "confidence": 1.0, "area_m2": 77.75, "centroid": [-82.075226, 35.918787]}}, {"type": "Feature", "geometry": {"type": "Polygon", "coordinates": [[[-82.0750689, 35.9186685], [-82.0751329, 35.91857309999999], [-82.0752778, 35.918636899999996], [-82.0752138, 35.918732299999995], [-82.0750689, 35.9186685]]]}, "properties": {"id": "spruce_pine-000043", "damage_class": 1, "damage_label": "minor-damage", "confidence": 1.0, "area_m2": 179.23, "centroid": [-82.075173, 35.918653]}}, {"type": "Feature", "geometry": {"type": "Polygon", "coordinates": [[[-82.07389010000001, 35.9186735], [-82.0738446, 35.91862979999999], [-82.0739014, 35.91859099999999], [-82.073947, 35.9186347], [-82.07389010000001, 35.9186735]]]}, "properties": {"id": "spruce_pine-000044", "damage_class": 1, "damage_label": "minor-damage", "confidence": 1.0, "area_m2": 42.55, "centroid": [-82.073896, 35.918632]}}, {"type": "Feature", "geometry": {"type": "Polygon", "coordinates": [[[-82.0733896, 35.918669799999996], [-82.0732678, 35.91854459999998], [-82.0733374, 35.918500299999984], [-82.0733621, 35.9185257], [-82.073377, 35.91851619999999], [-82.0734144, 35.9185547], [-82.0734945, 35.918503500000014], [-82.0735542, 35.91856490000001], [-82.0733896, 35.918669799999996]]]}, "properties": {"id": "spruce_pine-000045", "damage_class": 0, "damage_label": "no-damage", "confidence": 1.0, "area_m2": 245.0, "centroid": [-82.073408, 35.918575]}}, {"type": "Feature", "geometry": {"type": "Polygon", "coordinates": [[[-82.0738437, 35.9188783], [-82.0737795, 35.9189207], [-82.073756, 35.9188973], [-82.0738202, 35.91885500000001], [-82.0738437, 35.9188783]]]}, "properties": {"id": "spruce_pine-000046", "damage_class": 1, "damage_label": "minor-damage", "confidence": 1.0, "area_m2": 24.97, "centroid": [-82.0738, 35.918888]}}, {"type": "Feature", "geometry": {"type": "Polygon", "coordinates": [[[-82.0742052, 35.9186271], [-82.0741808, 35.9186419], [-82.0742078, 35.91867089999999], [-82.0741717, 35.9186929], [-82.0740387, 35.9185499], [-82.0741341, 35.91849169999999], [-82.0741882, 35.918549899999995], [-82.0742123, 35.918535199999994], [-82.0742794, 35.9186073], [-82.0742203, 35.91864330000001], [-82.0742052, 35.9186271]]]}, "properties": {"id": "spruce_pine-000047", "damage_class": 1, "damage_label": "minor-damage", "confidence": 1.0, "area_m2": 223.23, "centroid": [-82.074157, 35.918586]}}, {"type": "Feature", "geometry": {"type": "Polygon", "coordinates": [[[-82.0743761, 35.91897079999999], [-82.0743577, 35.918956099999996], [-82.074312, 35.91899339999999], [-82.0742806, 35.918968099999994], [-82.0743639, 35.9189001], [-82.0744136, 35.91894010000001], [-82.0743761, 35.91897079999999]]]}, "properties": {"id": "spruce_pine-000048", "damage_class": 0, "damage_label": "no-damage", "confidence": 1.0, "area_m2": 53.64, "centroid": [-82.074348, 35.918947]}}, {"type": "Feature", "geometry": {"type": "Polygon", "coordinates": [[[-82.07417060000002, 35.9190102], [-82.0742477, 35.9190593], [-82.0741422, 35.91916770000001], [-82.0740652, 35.91911849999999], [-82.07417060000002, 35.9190102]]]}, "properties": {"id": "spruce_pine-000049", "damage_class": 1, "damage_label": "minor-damage", "confidence": 1.0, "area_m2": 135.43, "centroid": [-82.074156, 35.919089]}}, {"type": "Feature", "geometry": {"type": "Polygon", "coordinates": [[[-82.0724456, 35.91372260000001], [-82.0724498, 35.9136973], [-82.0724222, 35.9136943], [-82.0724279, 35.913660799999995], [-82.0724536, 35.9136636], [-82.0724615, 35.9136164], [-82.0725245, 35.9136233], [-82.0725224, 35.9136359], [-82.0725498, 35.913638899999995], [-82.0725341, 35.9137324], [-82.0724456, 35.91372260000001]]]}, "properties": {"id": "spruce_pine-000050", "damage_class": 0, "damage_label": "no-damage", "confidence": 1.0, "area_m2": 102.51, "centroid": [-82.072492, 35.913676]}}, {"type": "Feature", "geometry": {"type": "Polygon", "coordinates": [[[-82.0747907, 35.914175799999995], [-82.0749857, 35.914136], [-82.0750077, 35.91420689999999], [-82.0750793, 35.914192299999996], [-82.0752228, 35.9143064], [-82.0753533, 35.9147328], [-82.0752914, 35.9147452], [-82.0752883, 35.91473499999999], [-82.07525720000001, 35.914741299999996], [-82.07527090000002, 35.9147859], [-82.0752036, 35.91479940000001], [-82.0751924, 35.9147629], [-82.0751689, 35.9147676], [-82.0751718, 35.91477710000001], [-82.0750154, 35.91480880000001], [-82.0750196, 35.9148226], [-82.0749427, 35.91483830000001], [-82.0749388, 35.914825699999994], [-82.0748861, 35.91483639999999], [-82.0748781, 35.9148277], [-82.0743758, 35.91493020000001], [-82.0742071, 35.914388], [-82.0748179, 35.91426330000001], [-82.0747907, 35.914175799999995]]]}, "properties": {"id": "spruce_pine-000051", "damage_class": 0, "damage_label": "no-damage", "confidence": 1.0, "area_m2": 5847.7, "centroid": [-82.074785, 35.914553]}}, {"type": "Feature", "geometry": {"type": "Polygon", "coordinates": [[[-82.0973417, 35.936769], [-82.0973486, 35.9368686], [-82.0972027, 35.9368753], [-82.097208, 35.93695089999999], [-82.0970956, 35.93695610000001], [-82.09709, 35.936877], [-82.0970408, 35.936879299999994], [-82.0970341, 35.93678309999999], [-82.0973417, 35.936769]]]}, "properties": {"id": "spruce_pine-000052", "damage_class": 1, "damage_label": "minor-damage", "confidence": 1.0, "area_m2": 391.22, "centroid": [-82.097183, 35.936845]}}, {"type": "Feature", "geometry": {"type": "Polygon", "coordinates": [[[-82.098252, 35.9370367], [-82.0984013, 35.9370132], [-82.0984423, 35.93718429999999], [-82.098293, 35.937207699999995], [-82.098252, 35.9370367]]]}, "properties": {"id": "spruce_pine-000053", "damage_class": 1, "damage_label": "minor-damage", "confidence": 1.0, "area_m2": 265.17, "centroid": [-82.098347, 35.93711]}}, {"type": "Feature", "geometry": {"type": "Polygon", "coordinates": [[[-82.0902615, 35.93158339999999], [-82.0900754, 35.93133809999999], [-82.0906576, 35.9310486], [-82.0908436, 35.9312938], [-82.0902615, 35.93158339999999]]]}, "properties": {"id": "spruce_pine-000054", "damage_class": 0, "damage_label": "no-damage", "confidence": 1.0, "area_m2": 1967.89, "centroid": [-82.09046, 35.931316]}}, {"type": "Feature", "geometry": {"type": "Polygon", "coordinates": [[[-82.0968596, 35.9333859], [-82.0967167, 35.933412499999996], [-82.096671, 35.9332521], [-82.0966876, 35.93324899999999], [-82.096668, 35.933179800000005], [-82.0967943, 35.9331562], [-82.0968596, 35.9333859]]]}, "properties": {"id": "spruce_pine-000055", "damage_class": 0, "damage_label": "no-damage", "confidence": 1.0, "area_m2": 333.81, "centroid": [-82.096759, 35.933287]}}, {"type": "Feature", "geometry": {"type": "Polygon", "coordinates": [[[-82.0970217, 35.93337019999999], [-82.0970464, 35.9334575], [-82.0967343, 35.933515499999984], [-82.0967095, 35.93342809999999], [-82.0970217, 35.93337019999999]]]}, "properties": {"id": "spruce_pine-000056", "damage_class": 0, "damage_label": "no-damage", "confidence": 1.0, "area_m2": 287.21, "centroid": [-82.096878, 35.933443]}}, {"type": "Feature", "geometry": {"type": "Polygon", "coordinates": [[[-82.0980612, 35.9317966], [-82.0978189, 35.9323868], [-82.097464, 35.93229139999999], [-82.0975351, 35.9321181], [-82.097373, 35.932074500000006], [-82.0973028, 35.9322456], [-82.0969079, 35.9321395], [-82.0969811, 35.931960800000006], [-82.0967437, 35.93189699999999], [-82.096716, 35.9319644], [-82.0963618, 35.9318692], [-82.0963941, 35.93179039999999], [-82.0961793, 35.9317326], [-82.0963427, 35.93133420000001], [-82.0980612, 35.9317966]]]}, "properties": {"id": "spruce_pine-000057", "damage_class": 1, "damage_label": "minor-damage", "confidence": 1.0, "area_m2": 9570.23, "centroid": [-82.097149, 35.931837]}}, {"type": "Feature", "geometry": {"type": "Polygon", "coordinates": [[[-82.0956404, 35.93157399999999], [-82.0957608, 35.931316299999985], [-82.0960916, 35.9314176], [-82.0960175, 35.9315762], [-82.0958606, 35.9315281], [-82.0958143, 35.9316272], [-82.0956404, 35.93157399999999]]]}, "properties": {"id": "spruce_pine-000058", "damage_class": 0, "damage_label": "no-damage", "confidence": 1.0, "area_m2": 797.18, "centroid": [-82.095855, 35.931472]}}, {"type": "Feature", "geometry": {"type": "Polygon", "coordinates": [[[-82.1009413, 35.93854640000001], [-82.1008665, 35.9387153], [-82.10047200000001, 35.9386009], [-82.1005468, 35.93843189999999], [-82.1009413, 35.93854640000001]]]}, "properties": {"id": "spruce_pine-000059", "damage_class": 1, "damage_label": "minor-damage", "confidence": 1.0, "area_m2": 752.61, "centroid": [-82.100707, 35.938574]}}, {"type": "Feature", "geometry": {"type": "Polygon", "coordinates": [[[-82.0978756, 35.934966399999986], [-82.0977228, 35.9348405], [-82.0982311, 35.9345015], [-82.09837, 35.934636899999994], [-82.0978756, 35.934966399999986]]]}, "properties": {"id": "spruce_pine-000060", "damage_class": 0, "damage_label": "no-damage", "confidence": 1.0, "area_m2": 1143.32, "centroid": [-82.09805, 35.934736]}}, {"type": "Feature", "geometry": {"type": "Polygon", "coordinates": [[[-82.0980817, 35.934413899999996], [-82.0978275, 35.9345781], [-82.0977081, 35.93445680000001], [-82.0979622, 35.9342926], [-82.0980817, 35.934413899999996]]]}, "properties": {"id": "spruce_pine-000061", "damage_class": 0, "damage_label": "no-damage", "confidence": 1.0, "area_m2": 504.78, "centroid": [-82.097895, 35.934435]}}, {"type": "Feature", "geometry": {"type": "Polygon", "coordinates": [[[-82.0980534, 35.9342501], [-82.097915, 35.9341312], [-82.0982153, 35.933902], [-82.0983537, 35.9340209], [-82.0980534, 35.9342501]]]}, "properties": {"id": "spruce_pine-000062", "damage_class": 0, "damage_label": "no-damage", "confidence": 1.0, "area_m2": 674.75, "centroid": [-82.098134, 35.934076]}}, {"type": "Feature", "geometry": {"type": "Polygon", "coordinates": [[[-82.0984214, 35.933986], [-82.09832090000002, 35.9339034], [-82.0985643, 35.933709500000006], [-82.0986646, 35.933792], [-82.0984214, 35.933986]]]}, "properties": {"id": "spruce_pine-000063", "damage_class": 0, "damage_label": "no-damage", "confidence": 1.0, "area_m2": 395.85, "centroid": [-82.098493, 35.933848]}}, {"type": "Feature", "geometry": {"type": "Polygon", "coordinates": [[[-82.09884570000001, 35.933554199999996], [-82.0987809, 35.93353429999999], [-82.09884690000001, 35.933393499999994], [-82.09891160000001, 35.9334134], [-82.09884570000001, 35.933554199999996]]]}, "properties": {"id": "spruce_pine-000064", "damage_class": 1, "damage_label": "minor-damage", "confidence": 1.0, "area_m2": 104.37, "centroid": [-82.098846, 35.933474]}}, {"type": "Feature", "geometry": {"type": "Polygon", "coordinates": [[[-82.0987258, 35.93625519999999], [-82.0986075, 35.9362796], [-82.0985835, 35.9362032], [-82.0983643, 35.936248299999995], [-82.0983246, 35.9361219], [-82.0986621, 35.936052399999994], [-82.0987258, 35.93625519999999]]]}, "properties": {"id": "spruce_pine-000065", "damage_class": 0, "damage_label": "no-damage", "confidence": 1.0, "area_m2": 550.87, "centroid": [-82.098538, 35.936164]}}, {"type": "Feature", "geometry": {"type": "Polygon", "coordinates": [[[-82.098945, 35.9362119], [-82.0987978, 35.936241], [-82.0987589, 35.9361121], [-82.0989061, 35.936082999999996], [-82.098945, 35.9362119]]]}, "properties": {"id": "spruce_pine-000066", "damage_class": 0, "damage_label": "no-damage", "confidence": 1.0, "area_m2": 201.2, "centroid": [-82.098852, 35.936162]}}, {"type": "Feature", "geometry": {"type": "Polygon", "coordinates": [[[-82.0989704, 35.9362797], [-82.0988788, 35.9362989], [-82.0988589, 35.93623650000001], [-82.0989506, 35.93621739999999], [-82.0989704, 35.9362797]]]}, "properties": {"id": "spruce_pine-000067", "damage_class": 0, "damage_label": "no-damage", "confidence": 1.0, "area_m2": 60.99, "centroid": [-82.098915, 35.936258]}}, {"type": "Feature", "geometry": {"type": "Polygon", "coordinates": [[[-82.0987511, 35.935954599999995], [-82.0985522, 35.93598049999999], [-82.0985358, 35.9358979], [-82.0987347, 35.935871999999996], [-82.0987511, 35.935954599999995]]]}, "properties": {"id": "spruce_pine-000068", "damage_class": 0, "damage_label": "no-damage", "confidence": 1.0, "area_m2": 168.65, "centroid": [-82.098643, 35.935926]}}, {"type": "Feature", "geometry": {"type": "Polygon", "coordinates": [[[-82.0984532, 35.9360483], [-82.0980729, 35.93612769999999], [-82.098047, 35.9360464], [-82.0984273, 35.93596699999999], [-82.0984532, 35.9360483]]]}, "properties": {"id": "spruce_pine-000069", "damage_class": 0, "damage_label": "no-damage", "confidence": 1.0, "area_m2": 329.97, "centroid": [-82.09825, 35.936047]}}, {"type": "Feature", "geometry": {"type": "Polygon", "coordinates": [[[-82.1012202, 35.9369396], [-82.1012469, 35.9369302], [-82.1012758, 35.936927899999986], [-82.1013042, 35.936933], [-82.1013292, 35.9369449], [-82.1013485, 35.93696250000001], [-82.10136010000001, 35.9369841], [-82.101363, 35.93700749999999], [-82.1013555, 35.937032899999984], [-82.1013377, 35.9370547], [-82.1013118, 35.9370702], [-82.1012809, 35.9370777], [-82.1012487, 35.937076100000006], [-82.1012191, 35.93706569999999], [-82.1011957, 35.9370478], [-82.1011812, 35.9370244], [-82.1011775, 35.9369985], [-82.1011838, 35.936975499999996], [-82.1011985, 35.93695520000001], [-82.1012202, 35.9369396]]]}, "properties": {"id": "spruce_pine-000070", "damage_class": 0, "damage_label": "no-damage", "confidence": 1.0, "area_m2": 215.55, "centroid": [-82.10127, 35.937003]}}, {"type": "Feature", "geometry": {"type": "Polygon", "coordinates": [[[-82.1013554, 35.9367349], [-82.101279, 35.936784800000005], [-82.101233, 35.936738600000005], [-82.1013094, 35.93668869999999], [-82.1013554, 35.9367349]]]}, "properties": {"id": "spruce_pine-000071", "damage_class": 0, "damage_label": "no-damage", "confidence": 1.0, "area_m2": 58.29, "centroid": [-82.101294, 35.936737]}}, {"type": "Feature", "geometry": {"type": "Polygon", "coordinates": [[[-82.1008406, 35.93500259999999], [-82.1005238, 35.935133900000004], [-82.1001165, 35.93448939999999], [-82.1001977, 35.934455799999995], [-82.1002209, 35.9344924], [-82.1002894, 35.934464], [-82.1002191, 35.9343527], [-82.1003862, 35.9342835], [-82.1008406, 35.93500259999999]]]}, "properties": {"id": "spruce_pine-000072", "damage_class": 0, "damage_label": "no-damage", "confidence": 1.0, "area_m2": 2704.16, "centroid": [-82.100472, 35.934727]}}, {"type": "Feature", "geometry": {"type": "Polygon", "coordinates": [[[-82.0997139, 35.9353843], [-82.099744, 35.935382], [-82.0997689, 35.9353958], [-82.099777, 35.93541940000001], [-82.0997561, 35.9354471], [-82.09971610000001, 35.93544970000001], [-82.0996953, 35.9354353], [-82.0996889, 35.9354139], [-82.0996927, 35.93540179999999], [-82.0997139, 35.9353843]]]}, "properties": {"id": "spruce_pine-000073", "damage_class": 1, "damage_label": "minor-damage", "confidence": 1.0, "area_m2": 48.78, "centroid": [-82.099732, 35.935416]}}, {"type": "Feature", "geometry": {"type": "Polygon", "coordinates": [[[-82.0998793, 35.9355256], [-82.0997864, 35.935477000000006], [-82.0998278, 35.93542529999999], [-82.0999206, 35.935473900000005], [-82.0998793, 35.9355256]]]}, "properties": {"id": "spruce_pine-000074", "damage_class": 1, "damage_label": "minor-damage", "confidence": 1.0, "area_m2": 68.15, "centroid": [-82.099854, 35.935475]}}, {"type": "Feature", "geometry": {"type": "Polygon", "coordinates": [[[-82.0996977, 35.9382631], [-82.099786, 35.93838259999999], [-82.0996954, 35.9384265], [-82.0996551, 35.938372], [-82.099582, 35.93840740000001], [-82.099556, 35.9383722], [-82.0996238, 35.9383393], [-82.0996018, 35.9383096], [-82.0996977, 35.9382631]]]}, "properties": {"id": "spruce_pine-000075", "damage_class": 0, "damage_label": "no-damage", "confidence": 1.0, "area_m2": 184.25, "centroid": [-82.099678, 35.93835]}}, {"type": "Feature", "geometry": {"type": "Polygon", "coordinates": [[[-82.0989091, 35.9381955], [-82.0989126, 35.938256899999985], [-82.0989593, 35.93825519999999], [-82.0989678, 35.93840600000001], [-82.0989953, 35.938405], [-82.0989986, 35.9384626], [-82.0990589, 35.9384603], [-82.09906550000001, 35.93857679999999], [-82.0989878, 35.938579700000005], [-82.09899160000002, 35.9386461], [-82.0990206, 35.938645], [-82.0990215, 35.9386608], [-82.0990413, 35.93866010000001], [-82.0990437, 35.9387024], [-82.0990831, 35.938701], [-82.0990863, 35.9387557], [-82.099062, 35.93875659999999], [-82.099064, 35.9387907], [-82.0990795, 35.9387992], [-82.0990907, 35.93878579999999], [-82.0992872, 35.938893900000004], [-82.0993162, 35.9388594], [-82.0994708, 35.93894449999999], [-82.0992876, 35.93916289999999], [-82.09905550000002, 35.93903530000001], [-82.0989613, 35.9391476], [-82.0987292, 35.9390199], [-82.0987626, 35.9389802], [-82.0987707, 35.9389846], [-82.0988109, 35.93893669999999], [-82.098796, 35.9389285], [-82.098816, 35.9389047], [-82.09875490000002, 35.93887109999999], [-82.0986646, 35.9387815], [-82.0986552, 35.9386124], [-82.0986397, 35.9386129], [-82.0986372, 35.9385676], [-82.0986092, 35.93856860000001], [-82.0986061, 35.938513500000006], [-82.0986371, 35.93851229999999], [-82.0986327, 35.9384339], [-82.0986476, 35.938433300000014], [-82.0986427, 35.93834499999999], [-82.0987534, 35.9383409], [-82.0987455, 35.9382016], [-82.0989091, 35.9381955]]]}, "properties": {"id": "spruce_pine-000076", "damage_class": 1, "damage_label": "minor-damage", "confidence": 1.0, "area_m2": 3805.7, "centroid": [-82.098948, 35.938732]}}, {"type": "Feature", "geometry": {"type": "Polygon", "coordinates": [[[-82.1000359, 35.9391345], [-82.0998997, 35.93911609999999], [-82.0999224, 35.9390057], [-82.1000586, 35.93902409999999], [-82.1000359, 35.9391345]]]}, "properties": {"id": "spruce_pine-000077", "damage_class": 0, "damage_label": "no-damage", "confidence": 1.0, "area_m2": 154.64, "centroid": [-82.099979, 35.93907]}}, {"type": "Feature", "geometry": {"type": "Polygon", "coordinates": [[[-82.0972088, 35.9364859], [-82.0971436, 35.93648590000001], [-82.0971436, 35.9364424], [-82.0972088, 35.9364424], [-82.0972088, 35.9364859]]]}, "properties": {"id": "spruce_pine-000078", "damage_class": 3, "damage_label": "destroyed", "confidence": 1.0, "area_m2": 28.38, "centroid": [-82.097176, 35.936464]}}, {"type": "Feature", "geometry": {"type": "Polygon", "coordinates": [[[-82.072234, 35.9148019], [-82.0722641, 35.914707799999995], [-82.0731145, 35.914885899999994], [-82.0730844, 35.9149801], [-82.072234, 35.9148019]]]}, "properties": {"id": "spruce_pine-000079", "damage_class": 0, "damage_label": "no-damage", "confidence": 1.0, "area_m2": 855.08, "centroid": [-82.072674, 35.914844]}}, {"type": "Feature", "geometry": {"type": "Polygon", "coordinates": [[[-82.0724119, 35.915655], [-82.0722328, 35.915614899999994], [-82.07226700000001, 35.9155139], [-82.0724464, 35.91555400000001], [-82.0724119, 35.915655]]]}, "properties": {"id": "spruce_pine-000080", "damage_class": 1, "damage_label": "minor-damage", "confidence": 1.0, "area_m2": 196.21, "centroid": [-82.07234, 35.915584]}}, {"type": "Feature", "geometry": {"type": "Polygon", "coordinates": [[[-82.072307, 35.915407200000004], [-82.0722427, 35.9155786], [-82.0721606, 35.915558399999995], [-82.0722248, 35.915386999999996], [-82.072307, 35.915407200000004]]]}, "properties": {"id": "spruce_pine-000081", "damage_class": 0, "damage_label": "no-damage", "confidence": 1.0, "area_m2": 153.95, "centroid": [-82.072234, 35.915483]}}, {"type": "Feature", "geometry": {"type": "Polygon", "coordinates": [[[-82.0725546, 35.91611559999999], [-82.0723118, 35.91606879999999], [-82.0723381, 35.9159796], [-82.0725809, 35.9160264], [-82.0725546, 35.91611559999999]]]}, "properties": {"id": "spruce_pine-000082", "damage_class": 0, "damage_label": "no-damage", "confidence": 1.0, "area_m2": 229.1, "centroid": [-82.072446, 35.916048]}}, {"type": "Feature", "geometry": {"type": "Polygon", "coordinates": [[[-82.0726151, 35.916132299999994], [-82.0726155, 35.9161242], [-82.0725719, 35.9161226], [-82.0725768, 35.916035], [-82.0726168, 35.9160364], [-82.0726201, 35.91597649999999], [-82.0725325, 35.915973199999996], [-82.0725392, 35.9158543], [-82.0726952, 35.91586], [-82.0726799, 35.9161347], [-82.0726151, 35.916132299999994]]]}, "properties": {"id": "spruce_pine-000083", "damage_class": 0, "damage_label": "no-damage", "confidence": 1.0, "area_m2": 327.93, "centroid": [-82.072624, 35.915979]}}, {"type": "Feature", "geometry": {"type": "Polygon", "coordinates": [[[-82.0735924, 35.915391699999994], [-82.0734046, 35.91545609999999], [-82.0733113, 35.91527760000001], [-82.0733413, 35.9152673], [-82.0733007, 35.9151897], [-82.07328530000001, 35.915195000000004], [-82.0732674, 35.9151608], [-82.0732943, 35.91515149999999], [-82.07328650000001, 35.9151365], [-82.0734171, 35.91509179999999], [-82.0734402, 35.915136], [-82.0735667, 35.915092699999995], [-82.0736125, 35.9151802], [-82.0733955, 35.9152546], [-82.0734221, 35.9153057], [-82.0735284, 35.91526919999999], [-82.0735924, 35.915391699999994]]]}, "properties": {"id": "spruce_pine-000084", "damage_class": 0, "damage_label": "no-damage", "confidence": 1.0, "area_m2": 678.37, "centroid": [-82.073441, 35.915258]}}, {"type": "Feature", "geometry": {"type": "Polygon", "coordinates": [[[-82.0706698, 35.91486939999999], [-82.0706786, 35.914853599999994], [-82.0704967, 35.914787], [-82.0705082, 35.9147665], [-82.070453, 35.9147463], [-82.0704806, 35.91469679999999], [-82.0703693, 35.914656099999995], [-82.0704961, 35.9144291], [-82.0706784, 35.9144959], [-82.0706744, 35.914503], [-82.0708968, 35.9145846], [-82.0709167, 35.914549100000016], [-82.070997, 35.914578500000005], [-82.0709779, 35.91461269999999], [-82.0710605, 35.914643], [-82.0709323, 35.9148723], [-82.07091, 35.9148641], [-82.0708667, 35.9149416], [-82.0706698, 35.91486939999999]]]}, "properties": {"id": "spruce_pine-000085", "damage_class": 0, "damage_label": "no-damage", "confidence": 1.0, "area_m2": 1947.9, "centroid": [-82.070714, 35.914682]}}, {"type": "Feature", "geometry": {"type": "Polygon", "coordinates": [[[-82.0684423, 35.915587099999996], [-82.0683793, 35.9155543], [-82.0685256, 35.915370200000005], [-82.0685885, 35.915403000000005], [-82.0684423, 35.915587099999996]]]}, "properties": {"id": "spruce_pine-000086", "damage_class": 0, "damage_label": "no-damage", "confidence": 1.0, "area_m2": 164.01, "centroid": [-82.068484, 35.915479]}}, {"type": "Feature", "geometry": {"type": "Polygon", "coordinates": [[[-82.0686955, 35.915465299999994], [-82.0685534, 35.91565000000001], [-82.0684423, 35.915587099999996], [-82.0685885, 35.915403000000005], [-82.0686955, 35.915465299999994]]]}, "properties": {"id": "spruce_pine-000087", "damage_class": 0, "damage_label": "no-damage", "confidence": 1.0, "area_m2": 291.65, "centroid": [-82.06857, 35.915527]}}, {"type": "Feature", "geometry": {"type": "Polygon", "coordinates": [[[-82.0688026, 35.915515], [-82.06866920000002, 35.915701199999994], [-82.06856, 35.9156415], [-82.0686955, 35.915465299999994], [-82.0688026, 35.915515]]]}, "properties": {"id": "spruce_pine-000088", "damage_class": 0, "damage_label": "no-damage", "confidence": 1.0, "area_m2": 269.76, "centroid": [-82.068681, 35.915582]}}, {"type": "Feature", "geometry": {"type": "Polygon", "coordinates": [[[-82.0689393, 35.915587099999996], [-82.0688046, 35.91576760000001], [-82.06866920000002, 35.915701199999994], [-82.0688026, 35.915515], [-82.0689393, 35.915587099999996]]]}, "properties": {"id": "spruce_pine-000089", "damage_class": 0, "damage_label": "no-damage", "confidence": 1.0, "area_m2": 342.59, "centroid": [-82.068804, 35.915642]}}, {"type": "Feature", "geometry": {"type": "Polygon", "coordinates": [[[-82.0690152, 35.9156209], [-82.0688782, 35.91581320000001], [-82.0687983, 35.91577600000001], [-82.0689393, 35.915587099999996], [-82.0690152, 35.9156209]]]}, "properties": {"id": "spruce_pine-000090", "damage_class": 0, "damage_label": "no-damage", "confidence": 1.0, "area_m2": 197.98, "centroid": [-82.068907, 35.9157]}}, {"type": "Feature", "geometry": {"type": "Polygon", "coordinates": [[[-82.0691572, 35.9156902], [-82.06901640000001, 35.91587969999999], [-82.0688782, 35.91581320000001], [-82.0690152, 35.9156209], [-82.0691572, 35.9156902]]]}, "properties": {"id": "spruce_pine-000091", "damage_class": 0, "damage_label": "no-damage", "confidence": 1.0, "area_m2": 362.1, "centroid": [-82.069017, 35.91575]}}, {"type": "Feature", "geometry": {"type": "Polygon", "coordinates": [[[-82.0692746, 35.91574739999999], [-82.0691337, 35.91593689999999], [-82.06901640000001, 35.91587969999999], [-82.0691572, 35.9156902], [-82.0692746, 35.91574739999999]]]}, "properties": {"id": "spruce_pine-000092", "damage_class": 0, "damage_label": "no-damage", "confidence": 1.0, "area_m2": 303.22, "centroid": [-82.069145, 35.915814]}}, {"type": "Feature", "geometry": {"type": "Polygon", "coordinates": [[[-82.0693746, 35.915796], [-82.0692325, 35.915984], [-82.0691337, 35.91593689999999], [-82.0692746, 35.91574739999999], [-82.0693746, 35.915796]]]}, "properties": {"id": "spruce_pine-000093", "damage_class": 0, "damage_label": "no-damage", "confidence": 1.0, "area_m2": 255.12, "centroid": [-82.069254, 35.915866]}}, {"type": "Feature", "geometry": {"type": "Polygon", "coordinates": [[[-82.0695233, 35.91587009999999], [-82.0694285, 35.9159949], [-82.0692798, 35.91592079999999], [-82.0693746, 35.915796], [-82.0695233, 35.91587009999999]]]}, "properties": {"id": "spruce_pine-000094", "damage_class": 0, "damage_label": "no-damage", "confidence": 1.0, "area_m2": 256.06, "centroid": [-82.069402, 35.915895]}}, {"type": "Feature", "geometry": {"type": "Polygon", "coordinates": [[[-82.0694285, 35.9159949], [-82.0693791, 35.91606], [-82.0692269, 35.9159931], [-82.0692798, 35.91592079999999], [-82.0694285, 35.9159949]]]}, "properties": {"id": "spruce_pine-000095", "damage_class": 0, "damage_label": "no-damage", "confidence": 1.0, "area_m2": 139.93, "centroid": [-82.069327, 35.915992]}}, {"type": "Feature", "geometry": {"type": "Polygon", "coordinates": [[[-82.0661377, 35.9153693], [-82.06611620000001, 35.9151676], [-82.0662515, 35.91515789999998], [-82.0662588, 35.9152248], [-82.0664409, 35.91521170000001], [-82.0664558, 35.91534690000002], [-82.0661377, 35.9153693]]]}, "properties": {"id": "spruce_pine-000096", "damage_class": 0, "damage_label": "no-damage", "confidence": 1.0, "area_m2": 522.86, "centroid": [-82.066272, 35.915274]}}, {"type": "Feature", "geometry": {"type": "Polygon", "coordinates": [[[-82.0659917, 35.91537859999999], [-82.0659789, 35.915247], [-82.0661249, 35.9152377], [-82.0661377, 35.9153693], [-82.0659917, 35.91537859999999]]]}, "properties": {"id": "spruce_pine-000097", "damage_class": 0, "damage_label": "no-damage", "confidence": 1.0, "area_m2": 193.51, "centroid": [-82.066058, 35.915308]}}, {"type": "Feature", "geometry": {"type": "Polygon", "coordinates": [[[-82.0661403, 35.916348], [-82.0661356, 35.91654350000001], [-82.0656583, 35.91653589999999], [-82.0656631, 35.9163405], [-82.0661403, 35.916348]]]}, "properties": {"id": "spruce_pine-000098", "damage_class": 0, "damage_label": "no-damage", "confidence": 1.0, "area_m2": 934.0, "centroid": [-82.065899, 35.916442]}}, {"type": "Feature", "geometry": {"type": "Polygon", "coordinates": [[[-82.068267, 35.91388469999999], [-82.0682813, 35.9138345], [-82.0683691, 35.913850899999986], [-82.0683549, 35.91390109999999], [-82.068267, 35.91388469999999]]]}, "properties": {"id": "spruce_pine-000099", "damage_class": 0, "damage_label": "no-damage", "confidence": 1.0, "area_m2": 46.48, "centroid": [-82.068318, 35.913868]}}, {"type": "Feature", "geometry": {"type": "Polygon", "coordinates": [[[-82.0597353, 35.91451620000001], [-82.05968130000001, 35.91445910000001], [-82.0598182, 35.9143742], [-82.05987220000002, 35.9144313], [-82.0597353, 35.91451620000001]]]}, "properties": {"id": "spruce_pine-000100", "damage_class": 0, "damage_label": "no-damage", "confidence": 1.0, "area_m2": 124.13, "centroid": [-82.059777, 35.914445]}}, {"type": "Feature", "geometry": {"type": "Polygon", "coordinates": [[[-82.0550157, 35.921247099999995], [-82.0550554, 35.9211397], [-82.0551388, 35.92116], [-82.0550991, 35.921267400000005], [-82.0550157, 35.921247099999995]]]}, "properties": {"id": "spruce_pine-000101", "damage_class": 0, "damage_label": "no-damage", "confidence": 1.0, "area_m2": 97.71, "centroid": [-82.055077, 35.921204]}}, {"type": "Feature", "geometry": {"type": "Polygon", "coordinates": [[[-82.0548394, 35.9216482], [-82.0548381, 35.921510999999995], [-82.054911, 35.92151049999999], [-82.0549116, 35.9215742], [-82.0549806, 35.9215738], [-82.0549813, 35.9216473], [-82.0548394, 35.9216482]]]}, "properties": {"id": "spruce_pine-000102", "damage_class": 0, "damage_label": "no-damage", "confidence": 1.0, "area_m2": 150.89, "centroid": [-82.054899, 35.92159]}}, {"type": "Feature", "geometry": {"type": "Polygon", "coordinates": [[[-82.0790154, 35.914452600000004], [-82.0789695, 35.91437829999999], [-82.0790644, 35.9143399], [-82.0791103, 35.9144142], [-82.0790154, 35.914452600000004]]]}, "properties": {"id": "spruce_pine-000103", "damage_class": 1, "damage_label": "minor-damage", "confidence": 1.0, "area_m2": 88.22, "centroid": [-82.07904, 35.914396]}}, {"type": "Feature", "geometry": {"type": "Polygon", "coordinates": [[[-82.0723629, 35.9140349], [-82.0723884, 35.9139143], [-82.0725113, 35.9139314], [-82.0724858, 35.9140519], [-82.0723629, 35.9140349]]]}, "properties": {"id": "spruce_pine-000104", "damage_class": 0, "damage_label": "no-damage", "confidence": 1.0, "area_m2": 152.65, "centroid": [-82.072437, 35.913983]}}, {"type": "Feature", "geometry": {"type": "Polygon", "coordinates": [[[-82.0720924, 35.9132791], [-82.072142, 35.913152], [-82.0722418, 35.91317759999998], [-82.0721921, 35.9133047], [-82.0720924, 35.9132791]]]}, "properties": {"id": "spruce_pine-000105", "damage_class": 0, "damage_label": "no-damage", "confidence": 1.0, "area_m2": 139.63, "centroid": [-82.072167, 35.913228]}}, {"type": "Feature", "geometry": {"type": "Polygon", "coordinates": [[[-82.07172657022106, 35.913128783287256], [-82.07187964628926, 35.91312741677767], [-82.0718609, 35.9131993], [-82.0717147, 35.9131743], [-82.07172657022106, 35.913128783287256]]]}, "properties": {"id": "spruce_pine-000106", "damage_class": 0, "damage_label": "no-damage", "confidence": 1.0, "area_m2": 89.73, "centroid": [-82.071801, 35.913158]}}, {"type": "Feature", "geometry": {"type": "Polygon", "coordinates": [[[-82.0669871, 35.91539879999999], [-82.06687330000001, 35.91558929999999], [-82.0665073, 35.91539879999999], [-82.0665528, 35.91519600000001], [-82.0666325, 35.9152344], [-82.0665907, 35.9153727], [-82.0668487, 35.9155017], [-82.0669311, 35.915374500000006], [-82.0669871, 35.91539879999999]]]}, "properties": {"id": "spruce_pine-000107", "damage_class": 0, "damage_label": "no-damage", "confidence": 1.0, "area_m2": 485.46, "centroid": [-82.066716, 35.915419]}}, {"type": "Feature", "geometry": {"type": "Polygon", "coordinates": [[[-82.0676863, 35.9157587], [-82.0675251, 35.915972200000006], [-82.0673721, 35.9158965], [-82.0675334, 35.915683], [-82.0676863, 35.9157587]]]}, "properties": {"id": "spruce_pine-000108", "damage_class": 0, "damage_label": "no-damage", "confidence": 1.0, "area_m2": 449.03, "centroid": [-82.067529, 35.915828]}}, {"type": "Feature", "geometry": {"type": "Polygon", "coordinates": [[[-82.06830430000001, 35.915873399999995], [-82.0681901, 35.9158197], [-82.0683108, 35.91565139999999], [-82.068425, 35.91570509999999], [-82.06830430000001, 35.915873399999995]]]}, "properties": {"id": "spruce_pine-000109", "damage_class": 0, "damage_label": "no-damage", "confidence": 1.0, "area_m2": 257.25, "centroid": [-82.068308, 35.915762]}}, {"type": "Feature", "geometry": {"type": "Polygon", "coordinates": [[[-82.0686713, 35.91582579999999], [-82.0685348, 35.915991700000006], [-82.0683982, 35.915918], [-82.0685348, 35.91575209999999], [-82.0686713, 35.91582579999999]]]}, "properties": {"id": "spruce_pine-000110", "damage_class": 0, "damage_label": "no-damage", "confidence": 1.0, "area_m2": 327.48, "centroid": [-82.068535, 35.915872]}}, {"type": "Feature", "geometry": {"type": "Polygon", "coordinates": [[[-82.0689454, 35.915961799999984], [-82.0688099, 35.91613449999999], [-82.0686677, 35.9160613], [-82.0688032, 35.91588860000001], [-82.0689454, 35.915961799999984]]]}, "properties": {"id": "spruce_pine-000111", "damage_class": 0, "damage_label": "no-damage", "confidence": 1.0, "area_m2": 345.08, "centroid": [-82.068807, 35.916012]}}, {"type": "Feature", "geometry": {"type": "Polygon", "coordinates": [[[-82.0691733, 35.91631660000001], [-82.0690452, 35.91625159999999], [-82.0691686, 35.916092], [-82.0692967, 35.9161569], [-82.0691733, 35.91631660000001]]]}, "properties": {"id": "spruce_pine-000112", "damage_class": 0, "damage_label": "no-damage", "confidence": 1.0, "area_m2": 284.92, "centroid": [-82.069171, 35.916204]}}, {"type": "Feature", "geometry": {"type": "Polygon", "coordinates": [[[-82.0687373, 35.9163915], [-82.0690048, 35.91652189999999], [-82.0689105, 35.9166489], [-82.0686429, 35.9165186], [-82.0687373, 35.9163915]]]}, "properties": {"id": "spruce_pine-000113", "damage_class": 0, "damage_label": "no-damage", "confidence": 1.0, "area_m2": 463.33, "centroid": [-82.068824, 35.91652]}}, {"type": "Feature", "geometry": {"type": "Polygon", "coordinates": [[[-82.0686761, 35.9162974], [-82.0687577, 35.9163391], [-82.0686098, 35.916528799999995], [-82.0685281, 35.916487100000005], [-82.0686761, 35.9162974]]]}, "properties": {"id": "spruce_pine-000114", "damage_class": 0, "damage_label": "no-damage", "confidence": 1.0, "area_m2": 216.78, "centroid": [-82.068643, 35.916413]}}, {"type": "Feature", "geometry": {"type": "Polygon", "coordinates": [[[-82.064572, 35.913995499999984], [-82.0646513, 35.9138618], [-82.0649303, 35.913970400000004], [-82.0648509, 35.91410409999999], [-82.064572, 35.913995499999984]]]}, "properties": {"id": "spruce_pine-000115", "damage_class": 0, "damage_label": "no-damage", "confidence": 1.0, "area_m2": 459.56, "centroid": [-82.064751, 35.913983]}}, {"type": "Feature", "geometry": {"type": "Polygon", "coordinates": [[[-82.0635239, 35.9142882], [-82.063519, 35.91416110000001], [-82.0640633, 35.9141473], [-82.0640683, 35.914274400000004], [-82.0635239, 35.9142882]]]}, "properties": {"id": "spruce_pine-000116", "damage_class": 0, "damage_label": "no-damage", "confidence": 1.0, "area_m2": 693.2, "centroid": [-82.063794, 35.914218]}}, {"type": "Feature", "geometry": {"type": "Polygon", "coordinates": [[[-82.0636719, 35.914429600000005], [-82.0636688, 35.9143503], [-82.0641524, 35.9143381], [-82.0641555, 35.91441729999999], [-82.0636719, 35.914429600000005]]]}, "properties": {"id": "spruce_pine-000117", "damage_class": 0, "damage_label": "no-damage", "confidence": 1.0, "area_m2": 383.99, "centroid": [-82.063912, 35.914384]}}, {"type": "Feature", "geometry": {"type": "Polygon", "coordinates": [[[-82.0647664, 35.9151739], [-82.0646995, 35.9150207], [-82.0650066, 35.914932699999994], [-82.0650736, 35.915086], [-82.0647664, 35.9151739]]]}, "properties": {"id": "spruce_pine-000118", "damage_class": 0, "damage_label": "no-damage", "confidence": 1.0, "area_m2": 530.08, "centroid": [-82.064887, 35.915053]}}, {"type": "Feature", "geometry": {"type": "Polygon", "coordinates": [[[-82.0654611, 35.91481770000001], [-82.065627, 35.9147815], [-82.0656927, 35.9149792], [-82.0655268, 35.9150154], [-82.0654611, 35.91481770000001]]]}, "properties": {"id": "spruce_pine-000119", "damage_class": 0, "damage_label": "no-damage", "confidence": 1.0, "area_m2": 352.1, "centroid": [-82.065577, 35.914898]}}, {"type": "Feature", "geometry": {"type": "Polygon", "coordinates": [[[-82.0601631, 35.919352499999995], [-82.0600003, 35.9191825], [-82.0602374, 35.9190335], [-82.0604002, 35.9192035], [-82.0601631, 35.919352499999995]]]}, "properties": {"id": "spruce_pine-000120", "damage_class": 0, "damage_label": "no-damage", "confidence": 1.0, "area_m2": 646.21, "centroid": [-82.0602, 35.919193]}}, {"type": "Feature", "geometry": {"type": "Polygon", "coordinates": [[[-82.0610811, 35.9182635], [-82.0612299, 35.91837159999999], [-82.0609302, 35.91864199999999], [-82.0607814, 35.9185338], [-82.0610811, 35.9182635]]]}, "properties": {"id": "spruce_pine-000121", "damage_class": 0, "damage_label": "no-damage", "confidence": 1.0, "area_m2": 727.05, "centroid": [-82.061006, 35.918453]}}, {"type": "Feature", "geometry": {"type": "Polygon", "coordinates": [[[-82.0630122, 35.9159431], [-82.062984, 35.9158182], [-82.0630954, 35.91580170000001], [-82.06312360000001, 35.9159266], [-82.0630122, 35.9159431]]]}, "properties": {"id": "spruce_pine-000122", "damage_class": 0, "damage_label": "no-damage", "confidence": 1.0, "area_m2": 143.92, "centroid": [-82.063054, 35.915872]}}, {"type": "Feature", "geometry": {"type": "Polygon", "coordinates": [[[-82.0621352, 35.91610479999999], [-82.0621188, 35.9159671], [-82.0623132, 35.915951899999996], [-82.0623297, 35.91608959999999], [-82.0621352, 35.91610479999999]]]}, "properties": {"id": "spruce_pine-000123", "damage_class": 0, "damage_label": "no-damage", "confidence": 1.0, "area_m2": 270.51, "centroid": [-82.062224, 35.916028]}}, {"type": "Feature", "geometry": {"type": "Polygon", "coordinates": [[[-82.0624597, 35.915937500000005], [-82.0624505, 35.91582590000001], [-82.0627294, 35.915810699999994], [-82.0627387, 35.91592229999999], [-82.0624597, 35.915937500000005]]]}, "properties": {"id": "spruce_pine-000124", "damage_class": 0, "damage_label": "no-damage", "confidence": 1.0, "area_m2": 313.0, "centroid": [-82.062595, 35.915874]}}, {"type": "Feature", "geometry": {"type": "Polygon", "coordinates": [[[-82.0621204, 35.9156953], [-82.0620842, 35.91557720000001], [-82.06233760000002, 35.9155261], [-82.0623739, 35.91564419999999], [-82.0621204, 35.9156953]]]}, "properties": {"id": "spruce_pine-000125", "damage_class": 0, "damage_label": "no-damage", "confidence": 1.0, "area_m2": 318.14, "centroid": [-82.062229, 35.915611]}}, {"type": "Feature", "geometry": {"type": "Polygon", "coordinates": [[[-82.0637174, 35.914993300000006], [-82.0640546, 35.914944], [-82.0641324, 35.91529260000001], [-82.0637951, 35.915341999999995], [-82.0637174, 35.914993300000006]]]}, "properties": {"id": "spruce_pine-000126", "damage_class": 0, "damage_label": "no-damage", "confidence": 1.0, "area_m2": 1215.32, "centroid": [-82.063925, 35.915143]}}, {"type": "Feature", "geometry": {"type": "Polygon", "coordinates": [[[-82.0630123, 35.915191300000004], [-82.0632173, 35.9151556], [-82.063283, 35.915403299999994], [-82.063078, 35.91543899999999], [-82.0630123, 35.915191300000004]]]}, "properties": {"id": "spruce_pine-000127", "damage_class": 0, "damage_label": "no-damage", "confidence": 1.0, "area_m2": 531.73, "centroid": [-82.063148, 35.915297]}}, {"type": "Feature", "geometry": {"type": "Polygon", "coordinates": [[[-82.0642605, 35.9148636], [-82.0639037, 35.9148702], [-82.0638987, 35.91469059999999], [-82.0642555, 35.91468410000001], [-82.0642605, 35.9148636]]]}, "properties": {"id": "spruce_pine-000128", "damage_class": 0, "damage_label": "no-damage", "confidence": 1.0, "area_m2": 641.56, "centroid": [-82.06408, 35.914777]}}, {"type": "Feature", "geometry": {"type": "Polygon", "coordinates": [[[-82.0638478, 35.91462109999999], [-82.0638478, 35.91450809999999], [-82.0641911, 35.9145081], [-82.0641911, 35.91462109999999], [-82.0638478, 35.91462109999999]]]}, "properties": {"id": "spruce_pine-000129", "damage_class": 0, "damage_label": "no-damage", "confidence": 1.0, "area_m2": 388.29, "centroid": [-82.064019, 35.914565]}}, {"type": "Feature", "geometry": {"type": "Polygon", "coordinates": [[[-82.0634199, 35.91588180000001], [-82.0636573, 35.9158698], [-82.0636667, 35.915992900000006], [-82.0634294, 35.9160048], [-82.0634199, 35.91588180000001]]]}, "properties": {"id": "spruce_pine-000130", "damage_class": 0, "damage_label": "no-damage", "confidence": 1.0, "area_m2": 293.46, "centroid": [-82.063543, 35.915937]}}, {"type": "Feature", "geometry": {"type": "Polygon", "coordinates": [[[-82.0641375, 35.915962499999985], [-82.0641221, 35.915864400000004], [-82.06433400000002, 35.915842700000006], [-82.0643494, 35.9159408], [-82.0641375, 35.915962499999985]]]}, "properties": {"id": "spruce_pine-000131", "damage_class": 0, "damage_label": "no-damage", "confidence": 1.0, "area_m2": 211.41, "centroid": [-82.064236, 35.915903]}}, {"type": "Feature", "geometry": {"type": "Polygon", "coordinates": [[[-82.0640034, 35.9159299], [-82.063836, 35.91593279999999], [-82.063828, 35.91562429999999], [-82.0639953, 35.9156214], [-82.0640034, 35.9159299]]]}, "properties": {"id": "spruce_pine-000132", "damage_class": 0, "damage_label": "no-damage", "confidence": 1.0, "area_m2": 516.98, "centroid": [-82.063916, 35.915777]}}, {"type": "Feature", "geometry": {"type": "Polygon", "coordinates": [[[-82.0648572, 35.91673509999999], [-82.0649816, 35.9167303], [-82.0649911, 35.91689], [-82.0648667, 35.9168949], [-82.0648572, 35.91673509999999]]]}, "properties": {"id": "spruce_pine-000133", "damage_class": 0, "damage_label": "no-damage", "confidence": 1.0, "area_m2": 199.37, "centroid": [-82.064924, 35.916813]}}, {"type": "Feature", "geometry": {"type": "Polygon", "coordinates": [[[-82.0635715, 35.91681399999999], [-82.0635741, 35.91675109999999], [-82.0637337, 35.91675550000001], [-82.0637311, 35.9168183], [-82.0635715, 35.91681399999999]]]}, "properties": {"id": "spruce_pine-000134", "damage_class": 0, "damage_label": "no-damage", "confidence": 1.0, "area_m2": 100.51, "centroid": [-82.063653, 35.916785]}}, {"type": "Feature", "geometry": {"type": "Polygon", "coordinates": [[[-82.0705156, 35.91642759999999], [-82.0702971, 35.9167056], [-82.0701507, 35.916630099999985], [-82.0701865, 35.916584500000006], [-82.0700642, 35.9165214], [-82.070247, 35.916289000000006], [-82.0705156, 35.91642759999999]]]}, "properties": {"id": "spruce_pine-000135", "damage_class": 0, "damage_label": "no-damage", "confidence": 1.0, "area_m2": 972.39, "centroid": [-82.070285, 35.916491]}}, {"type": "Feature", "geometry": {"type": "Polygon", "coordinates": [[[-82.0710335, 35.91695020000002], [-82.0711132, 35.9168672], [-82.0712392, 35.91689499999998], [-82.0711559, 35.91698319999999], [-82.0710335, 35.91695020000002]]]}, "properties": {"id": "spruce_pine-000136", "damage_class": 0, "damage_label": "no-damage", "confidence": 1.0, "area_m2": 131.21, "centroid": [-82.071136, 35.916924]}}, {"type": "Feature", "geometry": {"type": "Polygon", "coordinates": [[[-82.0714518, 35.916941], [-82.0713939, 35.9170239], [-82.0711559, 35.91698319999999], [-82.0712915, 35.91683960000001], [-82.0714518, 35.916941]]]}, "properties": {"id": "spruce_pine-000137", "damage_class": 0, "damage_label": "no-damage", "confidence": 1.0, "area_m2": 294.54, "centroid": [-82.071313, 35.916944]}}, {"type": "Feature", "geometry": {"type": "Polygon", "coordinates": [[[-82.0709778, 35.91664420000001], [-82.0708236, 35.9168897], [-82.07069010000001, 35.91683460000001], [-82.0708443, 35.91658919999999], [-82.0709778, 35.91664420000001]]]}, "properties": {"id": "spruce_pine-000138", "damage_class": 0, "damage_label": "no-damage", "confidence": 1.0, "area_m2": 412.94, "centroid": [-82.070834, 35.916739]}}]}