{"type":"FeatureCollection","generated":1788139715402,"features":[{"type":"Feature","geometry":{"type":"Point","coordinates":[-82.318193,35.22191]},"properties":{"id":"closure-1997051","layer":"closure","title":"Road closure 1997051","severity":3,"category":"Road closure","url":"https://www.drivenc.gov/?type=closure&id=1997051"}},{"type":"Feature","geometry":{"type":"Point","coordinates":[-82.340099,35.236389]},"properties":{"id":"closure-1997062","layer":"closure","title":"Road closure 1997062","severity":3,"category":"Road closure","url":"https://www.drivenc.gov/?type=closure&id=1997062"}},{"type":"Feature","geometry":{"type":"Point","coordinates":[-82.202156,35.231871]},"properties":{"id":"closure-2019539","layer":"closure","title":"Road closure 2019539","severity":3,"category":"Road closure","url":"https://www.drivenc.gov/?type=closure&id=2019539"}},{"type":"Feature","geometry":{"type":"Point","coordinates":[-78.64165,35.76918]},"properties":{"id":"closure-2026848","layer":"closure","title":"Road closure 2026848","severity":3,"category":"Road closure","url":"https://www.drivenc.gov/?type=closure&id=2026848"}},{"type":"Feature","geometry":{"type":"Point","coordinates":[-81.6958808705109,35.3027509822289]},"properties":{"id":"closure-2030604","layer":"closure","title":"Road closure 2030604","severity":3,"category":"Road closure","url":"https://www.drivenc.gov/?type=closure&id=2030604"}},{"type":"Feature","geometry":{"type":"Point","coordinates":[-81.6960958708342,35.3022829980542]},"properties":{"id":"closure-2030687","layer":"closure","title":"Road closure 2030687","severity":3,"category":"Road closure","url":"https://www.drivenc.gov/?type=closure&id=2030687"}},{"type":"Feature","geometry":{"type":"Point","coordinates":[-82.3409079857281,35.2366983957185]},"properties":{"id":"closure-2031257","layer":"closure","title":"Road closure 2031257","severity":3,"category":"Road closure","url":"https://www.drivenc.gov/?type=closure&id=2031257"}},{"type":"Feature","geometry":{"type":"Point","coordinates":[-82.4212996912768,35.60697]},"properties":{"id":"closure-2031580","layer":"closure","title":"Road closure 2031580","severity":3,"category":"Road closure","url":"https://www.drivenc.gov/?type=closure&id=2031580"}},{"type":"Feature","geometry":{"type":"Point","coordinates":[-82.1320159630758,35.8478782584689]},"properties":{"id":"closure-2031696","layer":"closure","title":"Road closure 2031696","severity":3,"category":"Road closure","url":"https://www.drivenc.gov/?type=closure&id=2031696"}},{"type":"Feature","geometry":{"type":"Point","coordinates":[-82.8432473443797,35.155837267582]},"properties":{"id":"closure-2031794","layer":"closure","title":"Road closure 2031794","severity":3,"category":"Road closure","url":"https://www.drivenc.gov/?type=closure&id=2031794"}},{"type":"Feature","geometry":{"type":"Point","coordinates":[-82.5450105215627,35.7841646422403]},"properties":{"id":"closure-2032101","layer":"closure","title":"Road closure 2032101","severity":3,"category":"Road closure","url":"https://www.drivenc.gov/?type=closure&id=2032101"}},{"type":"Feature","geometry":{"type":"Point","coordinates":[-78.6083318338215,35.8339272293484]},"properties":{"id":"closure-2032987","layer":"closure","title":"Road closure 2032987","severity":3,"category":"Road closure","url":"https://www.drivenc.gov/?type=closure&id=2032987"}},{"type":"Feature","geometry":{"type":"Point","coordinates":[-79.5768597099512,35.6413742715892]},"properties":{"id":"closure-2032988","layer":"closure","title":"Road closure 2032988","severity":3,"category":"Road closure","url":"https://www.drivenc.gov/?type=closure&id=2032988"}},{"type":"Feature","geometry":{"type":"Point","coordinates":[-80.8725955234415,35.4864843866553]},"properties":{"id":"closure-2032991","layer":"closure","title":"Road closure 2032991","severity":3,"category":"Road closure","url":"https://www.drivenc.gov/?type=closure&id=2032991"}},{"type":"Feature","geometry":{"type":"Point","coordinates":[-80.8563560503588,35.4926799241126]},"properties":{"id":"closure-2033685","layer":"closure","title":"Road closure 2033685","severity":3,"category":"Road closure","url":"https://www.drivenc.gov/?type=closure&id=2033685"}},{"type":"Feature","geometry":{"type":"Point","coordinates":[-81.9939789665413,35.4894107685232]},"properties":{"id":"closure-2033809","layer":"closure","title":"Road closure 2033809","severity":3,"category":"Road closure","url":"https://www.drivenc.gov/?type=closure&id=2033809"}},{"type":"Feature","geometry":{"type":"Point","coordinates":[-79.5424460650089,36.4538844986916]},"properties":{"id":"closure-2033861","layer":"closure","title":"Road closure 2033861","severity":3,"category":"Road closure","url":"https://www.drivenc.gov/?type=closure&id=2033861"}},{"type":"Feature","geometry":{"type":"Point","coordinates":[-82.19701,35.8702750036394]},"properties":{"id":"closure-2034661","layer":"closure","title":"Road closure 2034661","severity":3,"category":"Road closure","url":"https://www.drivenc.gov/?type=closure&id=2034661"}},{"type":"Feature","geometry":{"type":"Point","coordinates":[-82.3480757737567,35.4794151747384]},"properties":{"id":"closure-2034675","layer":"closure","title":"Road closure 2034675","severity":3,"category":"Road closure","url":"https://www.drivenc.gov/?type=closure&id=2034675"}},{"type":"Feature","geometry":{"type":"Point","coordinates":[-82.27971,35.4778856670266]},"properties":{"id":"closure-2034688","layer":"closure","title":"Road closure 2034688","severity":3,"category":"Road closure","url":"https://www.drivenc.gov/?type=closure&id=2034688"}},{"type":"Feature","geometry":{"type":"Point","coordinates":[-82.2794522967478,35.4492723498194]},"properties":{"id":"closure-2034711","layer":"closure","title":"Road closure 2034711","severity":3,"category":"Road closure","url":"https://www.drivenc.gov/?type=closure&id=2034711"}},{"type":"Feature","geometry":{"type":"Point","coordinates":[-81.4480317590885,35.2501529636459]},"properties":{"id":"closure-2037005","layer":"closure","title":"Road closure 2037005","severity":3,"category":"Road closure","url":"https://www.drivenc.gov/?type=closure&id=2037005"}},{"type":"Feature","geometry":{"type":"Point","coordinates":[-82.1925081924648,36.0046115733096]},"properties":{"id":"closure-2037147","layer":"closure","title":"Road closure 2037147","severity":3,"category":"Road closure","url":"https://www.drivenc.gov/?type=closure&id=2037147"}},{"type":"Feature","geometry":{"type":"Point","coordinates":[-78.9959021131946,35.9418624039218]},"properties":{"id":"closure-2037148","layer":"closure","title":"Road closure 2037148","severity":3,"category":"Road closure","url":"https://www.drivenc.gov/?type=closure&id=2037148"}},{"type":"Feature","geometry":{"type":"Point","coordinates":[-81.7353988418642,36.2056579653984]},"properties":{"id":"closure-2037457","layer":"closure","title":"Road closure 2037457","severity":3,"category":"Road closure","url":"https://www.drivenc.gov/?type=closure&id=2037457"}},{"type":"Feature","geometry":{"type":"Point","coordinates":[-82.1362304515944,35.7373645866398]},"properties":{"id":"closure-2037513","layer":"closure","title":"Road closure 2037513","severity":3,"category":"Road closure","url":"https://www.drivenc.gov/?type=closure&id=2037513"}},{"type":"Feature","geometry":{"type":"Point","coordinates":[-82.16498,35.76847986866]},"properties":{"id":"closure-2037564","layer":"closure","title":"Road closure 2037564","severity":3,"category":"Road closure","url":"https://www.drivenc.gov/?type=closure&id=2037564"}},{"type":"Feature","geometry":{"type":"Point","coordinates":[-79.0118171194932,34.6202202454998]},"properties":{"id":"closure-2037692","layer":"closure","title":"Road closure 2037692","severity":3,"category":"Road closure","url":"https://www.drivenc.gov/?type=closure&id=2037692"}},{"type":"Feature","geometry":{"type":"Point","coordinates":[-78.1196858344467,35.7796726018008]},"properties":{"id":"closure-2037712","layer":"closure","title":"Road closure 2037712","severity":3,"category":"Road closure","url":"https://www.drivenc.gov/?type=closure&id=2037712"}},{"type":"Feature","geometry":{"type":"Point","coordinates":[-80.2189891543263,35.5060041207772]},"properties":{"id":"closure-2037794","layer":"closure","title":"Road closure 2037794","severity":3,"category":"Road closure","url":"https://www.drivenc.gov/?type=closure&id=2037794"}},{"type":"Feature","geometry":{"type":"Point","coordinates":[-81.6717656275869,36.2921684652036]},"properties":{"id":"closure-2038020","layer":"closure","title":"Road closure 2038020","severity":3,"category":"Road closure","url":"https://www.drivenc.gov/?type=closure&id=2038020"}},{"type":"Feature","geometry":{"type":"Point","coordinates":[-80.27438,35.82702]},"properties":{"id":"closure-2038033","layer":"closure","title":"Road closure 2038033","severity":3,"category":"Road closure","url":"https://www.drivenc.gov/?type=closure&id=2038033"}},{"type":"Feature","geometry":{"type":"Point","coordinates":[-78.31867,35.50324]},"properties":{"id":"closure-2063802","layer":"closure","title":"Road closure 2063802","severity":3,"category":"Road closure","url":"https://www.drivenc.gov/?type=closure&id=2063802"}},{"type":"Feature","geometry":{"type":"Point","coordinates":[-78.7059335077228,35.7938865911414]},"properties":{"id":"closure-2063912","layer":"closure","title":"Road closure 2063912","severity":3,"category":"Road closure","url":"https://www.drivenc.gov/?type=closure&id=2063912"}},{"type":"Feature","geometry":{"type":"Point","coordinates":[-79.7252030617053,36.0597462359346]},"properties":{"id":"closure-2065731","layer":"closure","title":"Road closure 2065731","severity":3,"category":"Road closure","url":"https://www.drivenc.gov/?type=closure&id=2065731"}},{"type":"Feature","geometry":{"type":"Point","coordinates":[-78.5962257495726,35.2973567882015]},"properties":{"id":"closure-2065732","layer":"closure","title":"Road closure 2065732","severity":3,"category":"Road closure","url":"https://www.drivenc.gov/?type=closure&id=2065732"}},{"type":"Feature","geometry":{"type":"Point","coordinates":[-78.5977831054539,36.5331545890617]},"properties":{"id":"closure-2066639","layer":"closure","title":"Road closure 2066639","severity":3,"category":"Road closure","url":"https://www.drivenc.gov/?type=closure&id=2066639"}},{"type":"Feature","geometry":{"type":"Point","coordinates":[-82.3212745190859,36.0247893282262]},"properties":{"id":"closure-2069521","layer":"closure","title":"Road closure 2069521","severity":3,"category":"Road closure","url":"https://www.drivenc.gov/?type=closure&id=2069521"}},{"type":"Feature","geometry":{"type":"Point","coordinates":[-80.802635445984,36.0271669347971]},"properties":{"id":"closure-2069568","layer":"closure","title":"Road closure 2069568","severity":3,"category":"Road closure","url":"https://www.drivenc.gov/?type=closure&id=2069568"}},{"type":"Feature","geometry":{"type":"Point","coordinates":[-83.02589,35.73912]},"properties":{"id":"closure-2069862","layer":"closure","title":"Road closure 2069862","severity":3,"category":"Road closure","url":"https://www.drivenc.gov/?type=closure&id=2069862"}},{"type":"Feature","geometry":{"type":"Point","coordinates":[-79.1994662452741,35.6241262225902]},"properties":{"id":"closure-2071641","layer":"closure","title":"Road closure 2071641","severity":3,"category":"Road closure","url":"https://www.drivenc.gov/?type=closure&id=2071641"}},{"type":"Feature","geometry":{"type":"Point","coordinates":[-78.7419306531043,35.4826558068933]},"properties":{"id":"closure-2072703","layer":"closure","title":"Road closure 2072703","severity":3,"category":"Road closure","url":"https://www.drivenc.gov/?type=closure&id=2072703"}},{"type":"Feature","geometry":{"type":"Point","coordinates":[-78.7555826811817,35.4917336415218]},"properties":{"id":"closure-2072845","layer":"closure","title":"Road closure 2072845","severity":3,"category":"Road closure","url":"https://www.drivenc.gov/?type=closure&id=2072845"}},{"type":"Feature","geometry":{"type":"Point","coordinates":[-82.4164932494156,35.7230624757453]},"properties":{"id":"closure-2073293","layer":"closure","title":"Road closure 2073293","severity":3,"category":"Road closure","url":"https://www.drivenc.gov/?type=closure&id=2073293"}},{"type":"Feature","geometry":{"type":"Point","coordinates":[-81.3327177191707,35.7865087933528]},"properties":{"id":"closure-2105508","layer":"closure","title":"Road closure 2105508","severity":3,"category":"Road closure","url":"https://www.drivenc.gov/?type=closure&id=2105508"}},{"type":"Feature","geometry":{"type":"Point","coordinates":[-76.6465839757132,34.7249810944648]},"properties":{"id":"closure-2114421","layer":"closure","title":"Road closure 2114421","severity":3,"category":"Road closure","url":"https://www.drivenc.gov/?type=closure&id=2114421"}},{"type":"Feature","geometry":{"type":"Point","coordinates":[-81.0951915792394,35.955650003699]},"properties":{"id":"closure-2114432","layer":"closure","title":"Road closure 2114432","severity":3,"category":"Road closure","url":"https://www.drivenc.gov/?type=closure&id=2114432"}},{"type":"Feature","geometry":{"type":"Point","coordinates":[-77.261338982015,35.3503425083908]},"properties":{"id":"closure-2139555","layer":"closure","title":"Road closure 2139555","severity":3,"category":"Road closure","url":"https://www.drivenc.gov/?type=closure&id=2139555"}},{"type":"Feature","geometry":{"type":"Point","coordinates":[-78.4183060725337,35.9696396063864]},"properties":{"id":"closure-2146487","layer":"closure","title":"Road closure 2146487","severity":3,"category":"Road closure","url":"https://www.drivenc.gov/?type=closure&id=2146487"}},{"type":"Feature","geometry":{"type":"Point","coordinates":[-78.43441,35.9631000000001]},"properties":{"id":"closure-2146606","layer":"closure","title":"Road closure 2146606","severity":3,"category":"Road closure","url":"https://www.drivenc.gov/?type=closure&id=2146606"}},{"type":"Feature","geometry":{"type":"Point","coordinates":[-82.4651286486177,35.3115924308868]},"properties":{"id":"closure-2154826","layer":"closure","title":"Road closure 2154826","severity":3,"category":"Road closure","url":"https://www.drivenc.gov/?type=closure&id=2154826"}},{"type":"Feature","geometry":{"type":"Point","coordinates":[-82.32723,35.25026]},"properties":{"id":"closure-2161262","layer":"closure","title":"Road closure 2161262","severity":3,"category":"Road closure","url":"https://www.drivenc.gov/?type=closure&id=2161262"}},{"type":"Feature","geometry":{"type":"Point","coordinates":[-82.4961704479683,35.3217110144696]},"properties":{"id":"closure-2165210","layer":"closure","title":"Road closure 2165210","severity":3,"category":"Road closure","url":"https://www.drivenc.gov/?type=closure&id=2165210"}},{"type":"Feature","geometry":{"type":"Point","coordinates":[-83.8222223286977,35.0438498359046]},"properties":{"id":"closure-2186668","layer":"closure","title":"Road closure 2186668","severity":3,"category":"Road closure","url":"https://www.drivenc.gov/?type=closure&id=2186668"}},{"type":"Feature","geometry":{"type":"Point","coordinates":[-78.7314641576474,35.4835344413038]},"properties":{"id":"closure-2188122","layer":"closure","title":"Road closure 2188122","severity":3,"category":"Road closure","url":"https://www.drivenc.gov/?type=closure&id=2188122"}},{"type":"Feature","geometry":{"type":"Point","coordinates":[-79.1108697286311,34.721466744324]},"properties":{"id":"closure-2193323","layer":"closure","title":"Road closure 2193323","severity":3,"category":"Road closure","url":"https://www.drivenc.gov/?type=closure&id=2193323"}},{"type":"Feature","geometry":{"type":"Point","coordinates":[-82.6120969740092,35.8216998682818]},"properties":{"id":"closure-2206708","layer":"closure","title":"Road closure 2206708","severity":3,"category":"Road closure","url":"https://www.drivenc.gov/?type=closure&id=2206708"}},{"type":"Feature","geometry":{"type":"Point","coordinates":[-77.0322896032845,35.0847927416816]},"properties":{"id":"closure-2252888","layer":"closure","title":"Road closure 2252888","severity":3,"category":"Road closure","url":"https://www.drivenc.gov/?type=closure&id=2252888"}},{"type":"Feature","geometry":{"type":"Point","coordinates":[-82.3247497288145,35.2634168005193]},"properties":{"id":"closure-2272516","layer":"closure","title":"Road closure 2272516","severity":3,"category":"Road closure","url":"https://www.drivenc.gov/?type=closure&id=2272516"}},{"type":"Feature","geometry":{"type":"Point","coordinates":[-81.6873550218411,35.3001835847392]},"properties":{"id":"closure-2276434","layer":"closure","title":"Road closure 2276434","severity":3,"category":"Road closure","url":"https://www.drivenc.gov/?type=closure&id=2276434"}},{"type":"Feature","geometry":{"type":"Point","coordinates":[-81.6916512051311,35.3013146922473]},"properties":{"id":"closure-2276445","layer":"closure","title":"Road closure 2276445","severity":3,"category":"Road closure","url":"https://www.drivenc.gov/?type=closure&id=2276445"}},{"type":"Feature","geometry":{"type":"Point","coordinates":[-82.7023135385673,35.2745278124705]},"properties":{"id":"closure-2283328","layer":"closure","title":"Road closure 2283328","severity":3,"category":"Road closure","url":"https://www.drivenc.gov/?type=closure&id=2283328"}},{"type":"Feature","geometry":{"type":"Point","coordinates":[-82.703213735885,35.2753877118747]},"properties":{"id":"closure-2283372","layer":"closure","title":"Road closure 2283372","severity":3,"category":"Road closure","url":"https://www.drivenc.gov/?type=closure&id=2283372"}},{"type":"Feature","geometry":{"type":"Point","coordinates":[-78.746311654667,35.4844710528019]},"properties":{"id":"closure-2290289","layer":"closure","title":"Road closure 2290289","severity":3,"category":"Road closure","url":"https://www.drivenc.gov/?type=closure&id=2290289"}},{"type":"Feature","geometry":{"type":"Point","coordinates":[-80.2531236597326,35.8241780981708]},"properties":{"id":"closure-2347411","layer":"closure","title":"Road closure 2347411","severity":3,"category":"Road closure","url":"https://www.drivenc.gov/?type=closure&id=2347411"}},{"type":"Feature","geometry":{"type":"Point","coordinates":[-82.0506001933331,35.852738879096]},"properties":{"id":"closure-2373846","layer":"closure","title":"Road closure 2373846","severity":3,"category":"Road closure","url":"https://www.drivenc.gov/?type=closure&id=2373846"}},{"type":"Feature","geometry":{"type":"Point","coordinates":[-80.4958679924781,35.454386088321]},"properties":{"id":"closure-2388898","layer":"closure","title":"Road closure 2388898","severity":3,"category":"Road closure","url":"https://www.drivenc.gov/?type=closure&id=2388898"}},{"type":"Feature","geometry":{"type":"Point","coordinates":[-78.7053697040706,34.3183559118908]},"properties":{"id":"closure-2389713","layer":"closure","title":"Road closure 2389713","severity":3,"category":"Road closure","url":"https://www.drivenc.gov/?type=closure&id=2389713"}},{"type":"Feature","geometry":{"type":"Point","coordinates":[-79.9145549471714,36.2928884584194]},"properties":{"id":"closure-2389824","layer":"closure","title":"Road closure 2389824","severity":3,"category":"Road closure","url":"https://www.drivenc.gov/?type=closure&id=2389824"}},{"type":"Feature","geometry":{"type":"Point","coordinates":[-82.375103249527,35.5050290006306]},"properties":{"id":"closure-2431731","layer":"closure","title":"Road closure 2431731","severity":3,"category":"Road closure","url":"https://www.drivenc.gov/?type=closure&id=2431731"}},{"type":"Feature","geometry":{"type":"Point","coordinates":[-80.9399357631658,36.5080682129238]},"properties":{"id":"closure-2437746","layer":"closure","title":"Road closure 2437746","severity":3,"category":"Road closure","url":"https://www.drivenc.gov/?type=closure&id=2437746"}},{"type":"Feature","geometry":{"type":"Point","coordinates":[-78.6698299877668,36.3467448837848]},"properties":{"id":"closure-2448650","layer":"closure","title":"Road closure 2448650","severity":3,"category":"Road closure","url":"https://www.drivenc.gov/?type=closure&id=2448650"}},{"type":"Feature","geometry":{"type":"Point","coordinates":[-77.0693610452166,35.7700378007672]},"properties":{"id":"closure-2448705","layer":"closure","title":"Road closure 2448705","severity":3,"category":"Road closure","url":"https://www.drivenc.gov/?type=closure&id=2448705"}},{"type":"Feature","geometry":{"type":"Point","coordinates":[-77.0753117535967,35.7407842027378]},"properties":{"id":"closure-2448727","layer":"closure","title":"Road closure 2448727","severity":3,"category":"Road closure","url":"https://www.drivenc.gov/?type=closure&id=2448727"}},{"type":"Feature","geometry":{"type":"Point","coordinates":[-78.9791634884767,35.1231306631767]},"properties":{"id":"closure-2449859","layer":"closure","title":"Road closure 2449859","severity":3,"category":"Road closure","url":"https://www.drivenc.gov/?type=closure&id=2449859"}},{"type":"Feature","geometry":{"type":"Point","coordinates":[-78.9842819763641,35.125211970815]},"properties":{"id":"closure-2449882","layer":"closure","title":"Road closure 2449882","severity":3,"category":"Road closure","url":"https://www.drivenc.gov/?type=closure&id=2449882"}},{"type":"Feature","geometry":{"type":"Point","coordinates":[-79.3407839368655,35.0464843350871]},"properties":{"id":"closure-2450500","layer":"closure","title":"Road closure 2450500","severity":3,"category":"Road closure","url":"https://www.drivenc.gov/?type=closure&id=2450500"}},{"type":"Feature","geometry":{"type":"Point","coordinates":[-80.9329654400032,35.1641074057137]},"properties":{"id":"closure-2451838","layer":"closure","title":"Road closure 2451838","severity":3,"category":"Road closure","url":"https://www.drivenc.gov/?type=closure&id=2451838"}},{"type":"Feature","geometry":{"type":"Point","coordinates":[-79.5168344605975,34.7457303705059]},"properties":{"id":"closure-2451913","layer":"closure","title":"Road closure 2451913","severity":3,"category":"Road closure","url":"https://www.drivenc.gov/?type=closure&id=2451913"}},{"type":"Feature","geometry":{"type":"Point","coordinates":[-82.5155364307278,35.7880209538186]},"properties":{"id":"closure-2452719","layer":"closure","title":"Road closure 2452719","severity":3,"category":"Road closure","url":"https://www.drivenc.gov/?type=closure&id=2452719"}},{"type":"Feature","geometry":{"type":"Point","coordinates":[-82.5149795966938,35.3192453024796]},"properties":{"id":"closure-2456293","layer":"closure","title":"Road closure 2456293","severity":3,"category":"Road closure","url":"https://www.drivenc.gov/?type=closure&id=2456293"}},{"type":"Feature","geometry":{"type":"Point","coordinates":[-83.0084035349228,35.5917113412701]},"properties":{"id":"closure-2456295","layer":"closure","title":"Road closure 2456295","severity":3,"category":"Road closure","url":"https://www.drivenc.gov/?type=closure&id=2456295"}},{"type":"Feature","geometry":{"type":"Point","coordinates":[-82.3448791322409,35.4256141523568]},"properties":{"id":"closure-2456298","layer":"closure","title":"Road closure 2456298","severity":3,"category":"Road closure","url":"https://www.drivenc.gov/?type=closure&id=2456298"}},{"type":"Feature","geometry":{"type":"Point","coordinates":[-82.58401,35.58814]},"properties":{"id":"closure-2458326","layer":"closure","title":"Road closure 2458326","severity":3,"category":"Road closure","url":"https://www.drivenc.gov/?type=closure&id=2458326"}},{"type":"Feature","geometry":{"type":"Point","coordinates":[-82.092448134502,35.8503125042232]},"properties":{"id":"closure-2459687","layer":"closure","title":"Road closure 2459687","severity":3,"category":"Road closure","url":"https://www.drivenc.gov/?type=closure&id=2459687"}},{"type":"Feature","geometry":{"type":"Point","coordinates":[-82.1649687469817,35.7706749879271]},"properties":{"id":"closure-2459691","layer":"closure","title":"Road closure 2459691","severity":3,"category":"Road closure","url":"https://www.drivenc.gov/?type=closure&id=2459691"}},{"type":"Feature","geometry":{"type":"Point","coordinates":[-79.7109982585655,34.813010524389]},"properties":{"id":"closure-2461822","layer":"closure","title":"Road closure 2461822","severity":3,"category":"Road closure","url":"https://www.drivenc.gov/?type=closure&id=2461822"}},{"type":"Feature","geometry":{"type":"Point","coordinates":[-82.92176,35.52922]},"properties":{"id":"closure-2462410","layer":"closure","title":"Road closure 2462410","severity":3,"category":"Road closure","url":"https://www.drivenc.gov/?type=closure&id=2462410"}},{"type":"Feature","geometry":{"type":"Point","coordinates":[-82.6132779058888,35.7941999646856]},"properties":{"id":"closure-2462978","layer":"closure","title":"Road closure 2462978","severity":3,"category":"Road closure","url":"https://www.drivenc.gov/?type=closure&id=2462978"}},{"type":"Feature","geometry":{"type":"Point","coordinates":[-82.2707196504631,35.2243280966477]},"properties":{"id":"closure-2463099","layer":"closure","title":"Road closure 2463099","severity":3,"category":"Road closure","url":"https://www.drivenc.gov/?type=closure&id=2463099"}},{"type":"Feature","geometry":{"type":"Point","coordinates":[-82.397778556689,35.239998292372]},"properties":{"id":"closure-2463246","layer":"closure","title":"Road closure 2463246","severity":3,"category":"Road closure","url":"https://www.drivenc.gov/?type=closure&id=2463246"}},{"type":"Feature","geometry":{"type":"Point","coordinates":[-76.9562908084464,35.3708227600498]},"properties":{"id":"closure-2464014","layer":"closure","title":"Road closure 2464014","severity":3,"category":"Road closure","url":"https://www.drivenc.gov/?type=closure&id=2464014"}},{"type":"Feature","geometry":{"type":"Point","coordinates":[-80.5354942153916,36.4955396935827]},"properties":{"id":"closure-2465883","layer":"closure","title":"Road closure 2465883","severity":3,"category":"Road closure","url":"https://www.drivenc.gov/?type=closure&id=2465883"}},{"type":"Feature","geometry":{"type":"Point","coordinates":[-76.7836825398156,36.4211631297957]},"properties":{"id":"closure-2468541","layer":"closure","title":"Road closure 2468541","severity":3,"category":"Road closure","url":"https://www.drivenc.gov/?type=closure&id=2468541"}},{"type":"Feature","geometry":{"type":"Point","coordinates":[-81.3181201595607,35.2863701595608]},"properties":{"id":"closure-2469136","layer":"closure","title":"Road closure 2469136","severity":3,"category":"Road closure","url":"https://www.drivenc.gov/?type=closure&id=2469136"}},{"type":"Feature","geometry":{"type":"Point","coordinates":[-77.9343734443172,35.5506937964024]},"properties":{"id":"closure-2469563","layer":"closure","title":"Road closure 2469563","severity":3,"category":"Road closure","url":"https://www.drivenc.gov/?type=closure&id=2469563"}},{"type":"Feature","geometry":{"type":"Point","coordinates":[-82.99299,35.50806]},"properties":{"id":"closure-2470763","layer":"closure","title":"Road closure 2470763","severity":3,"category":"Road closure","url":"https://www.drivenc.gov/?type=closure&id=2470763"}},{"type":"Feature","geometry":{"type":"Point","coordinates":[-81.0022587367978,35.2433631110644]},"properties":{"id":"closure-2473903","layer":"closure","title":"Road closure 2473903","severity":3,"category":"Road closure","url":"https://www.drivenc.gov/?type=closure&id=2473903"}},{"type":"Feature","geometry":{"type":"Point","coordinates":[-76.761949048213,35.6309021653586]},"properties":{"id":"closure-2479064","layer":"closure","title":"Road closure 2479064","severity":3,"category":"Road closure","url":"https://www.drivenc.gov/?type=closure&id=2479064"}},{"type":"Feature","geometry":{"type":"Point","coordinates":[-80.26383,36.09021]},"properties":{"id":"closure-2479726","layer":"closure","title":"Road closure 2479726","severity":3,"category":"Road closure","url":"https://www.drivenc.gov/?type=closure&id=2479726"}},{"type":"Feature","geometry":{"type":"Point","coordinates":[-79.2548025012995,34.9889951768078]},"properties":{"id":"closure-2480751","layer":"closure","title":"Road closure 2480751","severity":3,"category":"Road closure","url":"https://www.drivenc.gov/?type=closure&id=2480751"}},{"type":"Feature","geometry":{"type":"Point","coordinates":[-79.7934407714896,35.9916930836699]},"properties":{"id":"closure-2480835","layer":"closure","title":"Road closure 2480835","severity":3,"category":"Road closure","url":"https://www.drivenc.gov/?type=closure&id=2480835"}},{"type":"Feature","geometry":{"type":"Point","coordinates":[-79.31539,36.06576]},"properties":{"id":"closure-2480906","layer":"closure","title":"Road closure 2480906","severity":3,"category":"Road closure","url":"https://www.drivenc.gov/?type=closure&id=2480906"}},{"type":"Feature","geometry":{"type":"Point","coordinates":[-79.31107,36.06618]},"properties":{"id":"closure-2480907","layer":"closure","title":"Road closure 2480907","severity":3,"category":"Road closure","url":"https://www.drivenc.gov/?type=closure&id=2480907"}},{"type":"Feature","geometry":{"type":"Point","coordinates":[-82.3838517789285,35.5407463735688]},"properties":{"id":"closure-2481328","layer":"closure","title":"Road closure 2481328","severity":3,"category":"Road closure","url":"https://www.drivenc.gov/?type=closure&id=2481328"}},{"type":"Feature","geometry":{"type":"Point","coordinates":[-80.31038,36.09204]},"properties":{"id":"closure-2482735","layer":"closure","title":"Road closure 2482735","severity":3,"category":"Road closure","url":"https://www.drivenc.gov/?type=closure&id=2482735"}},{"type":"Feature","geometry":{"type":"Point","coordinates":[-79.7635392633661,36.4907132927141]},"properties":{"id":"closure-2483868","layer":"closure","title":"Road closure 2483868","severity":3,"category":"Road closure","url":"https://www.drivenc.gov/?type=closure&id=2483868"}},{"type":"Feature","geometry":{"type":"Point","coordinates":[-81.2759415355052,35.338902307334]},"properties":{"id":"closure-2484670","layer":"closure","title":"Road closure 2484670","severity":3,"category":"Road closure","url":"https://www.drivenc.gov/?type=closure&id=2484670"}},{"type":"Feature","geometry":{"type":"Point","coordinates":[-79.7631145007817,36.4918936073263]},"properties":{"id":"closure-2484680","layer":"closure","title":"Road closure 2484680","severity":3,"category":"Road closure","url":"https://www.drivenc.gov/?type=closure&id=2484680"}},{"type":"Feature","geometry":{"type":"Point","coordinates":[-80.5457762454805,36.0596426173485]},"properties":{"id":"closure-2486347","layer":"closure","title":"Road closure 2486347","severity":3,"category":"Road closure","url":"https://www.drivenc.gov/?type=closure&id=2486347"}},{"type":"Feature","geometry":{"type":"Point","coordinates":[-82.3316347184655,35.6245875265333]},"properties":{"id":"closure-2489324","layer":"closure","title":"Road closure 2489324","severity":3,"category":"Road closure","url":"https://www.drivenc.gov/?type=closure&id=2489324"}},{"type":"Feature","geometry":{"type":"Point","coordinates":[-77.8551934618468,35.5987856229426]},"properties":{"id":"closure-2491673","layer":"closure","title":"Road closure 2491673","severity":3,"category":"Road closure","url":"https://www.drivenc.gov/?type=closure&id=2491673"}},{"type":"Feature","geometry":{"type":"Point","coordinates":[-81.473123520708,35.2778793813891]},"properties":{"id":"closure-2491790","layer":"closure","title":"Road closure 2491790","severity":3,"category":"Road closure","url":"https://www.drivenc.gov/?type=closure&id=2491790"}},{"type":"Feature","geometry":{"type":"Point","coordinates":[-84.0746984502334,34.9983143665111]},"properties":{"id":"closure-2492040","layer":"closure","title":"Road closure 2492040","severity":3,"category":"Road closure","url":"https://www.drivenc.gov/?type=closure&id=2492040"}},{"type":"Feature","geometry":{"type":"Point","coordinates":[-77.7057058018957,36.1201321101478]},"properties":{"id":"closure-2496823","layer":"closure","title":"Road closure 2496823","severity":3,"category":"Road closure","url":"https://www.drivenc.gov/?type=closure&id=2496823"}},{"type":"Feature","geometry":{"type":"Point","coordinates":[-78.53866,35.37589]},"properties":{"id":"closure-2497146","layer":"closure","title":"Road closure 2497146","severity":3,"category":"Road closure","url":"https://www.drivenc.gov/?type=closure&id=2497146"}},{"type":"Feature","geometry":{"type":"Point","coordinates":[-79.1558977771509,36.1234971044579]},"properties":{"id":"closure-2497721","layer":"closure","title":"Road closure 2497721","severity":3,"category":"Road closure","url":"https://www.drivenc.gov/?type=closure&id=2497721"}},{"type":"Feature","geometry":{"type":"Point","coordinates":[-77.8326665303765,34.2929330607531]},"properties":{"id":"closure-2500280","layer":"closure","title":"Road closure 2500280","severity":3,"category":"Road closure","url":"https://www.drivenc.gov/?type=closure&id=2500280"}},{"type":"Feature","geometry":{"type":"Point","coordinates":[-78.8223821041685,35.4051852604215]},"properties":{"id":"closure-2501373","layer":"closure","title":"Road closure 2501373","severity":3,"category":"Road closure","url":"https://www.drivenc.gov/?type=closure&id=2501373"}},{"type":"Feature","geometry":{"type":"Point","coordinates":[-78.976761,35.116467]},"properties":{"id":"closure-2501507","layer":"closure","title":"Road closure 2501507","severity":3,"category":"Road closure","url":"https://www.drivenc.gov/?type=closure&id=2501507"}},{"type":"Feature","geometry":{"type":"Point","coordinates":[-77.8827780635163,35.7360101303625]},"properties":{"id":"closure-2501827","layer":"closure","title":"Road closure 2501827","severity":3,"category":"Road closure","url":"https://www.drivenc.gov/?type=closure&id=2501827"}},{"type":"Feature","geometry":{"type":"Point","coordinates":[-76.9026201246724,35.4834154517467]},"properties":{"id":"closure-2505107","layer":"closure","title":"Road closure 2505107","severity":3,"category":"Road closure","url":"https://www.drivenc.gov/?type=closure&id=2505107"}},{"type":"Feature","geometry":{"type":"Point","coordinates":[-77.6485899392785,35.7748326361814]},"properties":{"id":"closure-2509492","layer":"closure","title":"Road closure 2509492","severity":3,"category":"Road closure","url":"https://www.drivenc.gov/?type=closure&id=2509492"}},{"type":"Feature","geometry":{"type":"Point","coordinates":[-82.55467,35.47812]},"properties":{"id":"closure-2511385","layer":"closure","title":"Road closure 2511385","severity":3,"category":"Road closure","url":"https://www.drivenc.gov/?type=closure&id=2511385"}},{"type":"Feature","geometry":{"type":"Point","coordinates":[-82.55644,35.48215]},"properties":{"id":"closure-2511386","layer":"closure","title":"Road closure 2511386","severity":3,"category":"Road closure","url":"https://www.drivenc.gov/?type=closure&id=2511386"}},{"type":"Feature","geometry":{"type":"Point","coordinates":[-78.32326,35.5048]},"properties":{"id":"closure-2511402","layer":"closure","title":"Road closure 2511402","severity":3,"category":"Road closure","url":"https://www.drivenc.gov/?type=closure&id=2511402"}},{"type":"Feature","geometry":{"type":"Point","coordinates":[-82.911743,35.917834]},"properties":{"id":"closure-2432035","layer":"closure","title":"Incident 2432035","severity":3,"category":"Incident","url":"https://www.drivenc.gov/?type=closure&id=2432035"}},{"type":"Feature","geometry":{"type":"Point","coordinates":[-78.575351,35.696535]},"properties":{"id":"closure-2511350","layer":"closure","title":"Incident 2511350","severity":3,"category":"Incident","url":"https://www.drivenc.gov/?type=closure&id=2511350"}},{"type":"Feature","geometry":{"type":"Point","coordinates":[-78.58736,35.307117]},"properties":{"id":"closure-2511397","layer":"closure","title":"Incident 2511397","severity":3,"category":"Incident","url":"https://www.drivenc.gov/?type=closure&id=2511397"}},{"type":"Feature","geometry":{"type":"Point","coordinates":[-78.965172,34.862199]},"properties":{"id":"closure-2511425","layer":"closure","title":"Incident 2511425","severity":3,"category":"Incident","url":"https://www.drivenc.gov/?type=closure&id=2511425"}}]}