{"type":"FeatureCollection","generated":1788050592283,"features":[{"type":"Feature","geometry":{"type":"Point","coordinates":[105.229,29.2752]},"properties":{"id":"1562260","source":"gdacs","hazard_type":"earthquake","title":"Earthquake in China","severity":2,"alert":"Orange","time":1787908415000}},{"type":"Feature","geometry":{"type":"Point","coordinates":[85.3649,27.2953]},"properties":{"id":"1104124","source":"gdacs","hazard_type":"flood","title":"Flood in Nepal","severity":2,"alert":"Orange","time":1787720400000}},{"type":"Feature","geometry":{"type":"Point","coordinates":[121,28.1]},"properties":{"id":"1001305","source":"gdacs","hazard_type":"cyclone","title":"Tropical Cyclone SAUDEL-26","severity":2,"alert":"Orange","time":1787068800000}},{"type":"Feature","geometry":{"type":"Point","coordinates":[33.577,1.115]},"properties":{"id":"1027465","source":"gdacs","hazard_type":"other","title":"Drought in Democratic Republic of Congo, Kenya, Tanzania, Uganda","severity":2,"alert":"Orange","time":1779336000000}},{"type":"Feature","geometry":{"type":"Point","coordinates":[-88.943,15.049]},"properties":{"id":"1027449","source":"gdacs","hazard_type":"other","title":"Drought in Belize, Guatemala, Honduras, Mexico, Nicaragua, El Salvador","severity":2,"alert":"Orange","time":1778472000000}},{"type":"Feature","geometry":{"type":"Point","coordinates":[42.131,9.46]},"properties":{"id":"1027450","source":"gdacs","hazard_type":"other","title":"Drought in Eritrea, Ethiopia, Kenya, Somalia","severity":2,"alert":"Orange","time":1776744000000}},{"type":"Feature","geometry":{"type":"Point","coordinates":[11.878,47.752]},"properties":{"id":"1018332","source":"gdacs","hazard_type":"other","title":"Drought in Albania, Austria, Bosnia  and  Herzegovina, Belgium, Bulgaria, Belarus, Switzerland, Czech Republic, Germany, Denmark, Spain, France, Croatia, Hungary, Ireland, Italy, Liechtenstein, Luxembourg, Montenegro, The Republic of North Macedonia, Netherlands, Poland, Romania, Serbia, Slovenia, Slovakia, Ukraine, ","severity":2,"alert":"Orange","time":1765429200000}},{"type":"Feature","geometry":{"type":"Point","coordinates":[47.606,-17.932]},"properties":{"id":"1018431","source":"gdacs","hazard_type":"other","title":"Drought in Madagascar","severity":2,"alert":"Orange","time":1763701200000}},{"type":"Feature","geometry":{"type":"Point","coordinates":[117.0123,25.0767]},"properties":{"id":"1104081","source":"gdacs","hazard_type":"flood","title":"Flood in China","severity":2,"alert":"Orange","time":1785474000000}},{"type":"Feature","geometry":{"type":"Point","coordinates":[77.5041,29.9857]},"properties":{"id":"1104121","source":"gdacs","hazard_type":"flood","title":"Flood in India","severity":2,"alert":"Orange","time":1786251600000}},{"type":"Feature","geometry":{"type":"Point","coordinates":[117.0123,25.0767]},"properties":{"id":"1104123","source":"gdacs","hazard_type":"flood","title":"Flood in China","severity":2,"alert":"Orange","time":1787374800000}},{"type":"Feature","geometry":{"type":"Point","coordinates":[21.1671,44.8678]},"properties":{"id":"1030252","source":"gdacs","hazard_type":"wildfire","title":"Forest fires in Serbia","severity":2,"alert":"Orange","time":1785902400000}},{"type":"Feature","geometry":{"type":"Point","coordinates":[-0.7181,42.4725]},"properties":{"id":"1030410","source":"gdacs","hazard_type":"wildfire","title":"Forest fires in Spain","severity":2,"alert":"Orange","time":1786334400000}},{"type":"Feature","geometry":{"type":"Point","coordinates":[6.0772,50.5262]},"properties":{"id":"1030534","source":"gdacs","hazard_type":"wildfire","title":"Forest fires in Belgium","severity":2,"alert":"Orange","time":1786680000000}},{"type":"Feature","geometry":{"type":"Point","coordinates":[121.3517,-8.3101]},"properties":{"id":"1558059","source":"gdacs","hazard_type":"earthquake","title":"Earthquake in Indonesia","severity":3,"alert":"Red","time":1786759101000}},{"type":"Feature","geometry":{"type":"Point","coordinates":[-76.2422,4.8436]},"properties":{"id":"1557236","source":"gdacs","hazard_type":"earthquake","title":"Earthquake in Colombia","severity":3,"alert":"Red","time":1786379668000}},{"type":"Feature","geometry":{"type":"Point","coordinates":[120.6,27.9]},"properties":{"id":"1001297","source":"gdacs","hazard_type":"cyclone","title":"Tropical Cyclone DOLPHIN-26","severity":2,"alert":"Orange","time":1785124800000}},{"type":"Feature","geometry":{"type":"Point","coordinates":[125.276,5.1812]},"properties":{"id":"1556215","source":"gdacs","hazard_type":"earthquake","title":"Earthquake in Philippines","severity":2,"alert":"Orange","time":1785917646000}},{"type":"Feature","geometry":{"type":"Point","coordinates":[23.2591,38.122]},"properties":{"id":"1029987","source":"gdacs","hazard_type":"wildfire","title":"Forest fires in Greece","severity":2,"alert":"Orange","time":1785470400000}},{"type":"Feature","geometry":{"type":"Point","coordinates":[24.4625,35.1684]},"properties":{"id":"1029958","source":"gdacs","hazard_type":"wildfire","title":"Forest fires in Greece","severity":2,"alert":"Orange","time":1785384000000}},{"type":"Feature","geometry":{"type":"Point","coordinates":[-1.0329,44.8463]},"properties":{"id":"1029628","source":"gdacs","hazard_type":"wildfire","title":"Forest fires in France","severity":3,"alert":"Red","time":1784692800000}},{"type":"Feature","geometry":{"type":"Point","coordinates":[110.9725,30.8276]},"properties":{"id":"1104051","source":"gdacs","hazard_type":"flood","title":"Flood in China","severity":3,"alert":"Red","time":1784955600000}},{"type":"Feature","geometry":{"type":"Point","coordinates":[-0.2541,39.8863]},"properties":{"id":"1029794","source":"gdacs","hazard_type":"wildfire","title":"Forest fires in Spain","severity":2,"alert":"Orange","time":1784952000000}},{"type":"Feature","geometry":{"type":"Point","coordinates":[-4.5405,40.3594]},"properties":{"id":"1029643","source":"gdacs","hazard_type":"wildfire","title":"Forest fires in Spain","severity":2,"alert":"Orange","time":1784692800000}},{"type":"Feature","geometry":{"type":"Point","coordinates":[8.5428,36.261]},"properties":{"id":"1029649","source":"gdacs","hazard_type":"wildfire","title":"Forest fires in Tunisia","severity":2,"alert":"Orange","time":1784606400000}},{"type":"Feature","geometry":{"type":"Point","coordinates":[130.7217,32.6817]},"properties":{"id":"1554552","source":"gdacs","hazard_type":"earthquake","title":"Earthquake in Japan","severity":2,"alert":"Orange","time":1785238035000}},{"type":"Feature","geometry":{"type":"Point","coordinates":[99.5198,35.3685]},"properties":{"id":"1554510","source":"gdacs","hazard_type":"earthquake","title":"Earthquake in China","severity":2,"alert":"Orange","time":1785222968000}},{"type":"Feature","geometry":{"type":"Point","coordinates":[114.5,22.9]},"properties":{"id":"1001294","source":"gdacs","hazard_type":"cyclone","title":"Tropical Cyclone NOUL-26","severity":2,"alert":"Orange","time":1784800800000}},{"type":"Feature","geometry":{"type":"Point","coordinates":[-3.0589,41.1147]},"properties":{"id":"1029540","source":"gdacs","hazard_type":"wildfire","title":"Forest fires in Spain","severity":2,"alert":"Orange","time":1784347200000}},{"type":"Feature","geometry":{"type":"Point","coordinates":[-75.3034,-12.1036]},"properties":{"id":"1552752","source":"gdacs","hazard_type":"earthquake","title":"Earthquake in Peru","severity":2,"alert":"Orange","time":1784442275000}},{"type":"Feature","geometry":{"type":"Point","coordinates":[123.685,13.257]},"properties":{"id":"1000144","source":"gdacs","hazard_type":"volcano","title":"Eruption  Mayon","severity":2,"alert":"Orange","time":1784181540000}},{"type":"Feature","geometry":{"type":"Point","coordinates":[103.2791,35.7003]},"properties":{"id":"1103933","source":"gdacs","hazard_type":"flood","title":"Flood in China","severity":2,"alert":"Orange","time":1780722000000}},{"type":"Feature","geometry":{"type":"Point","coordinates":[2.5494,48.375]},"properties":{"id":"1029489","source":"gdacs","hazard_type":"wildfire","title":"Forest fires in France","severity":2,"alert":"Orange","time":1783828800000}},{"type":"Feature","geometry":{"type":"Point","coordinates":[120.4,28.7]},"properties":{"id":"1001279","source":"gdacs","hazard_type":"cyclone","title":"Tropical Cyclone BAVI-26","severity":3,"alert":"Red","time":1782878400000}},{"type":"Feature","geometry":{"type":"Point","coordinates":[-2.0012,37.1805]},"properties":{"id":"1029448","source":"gdacs","hazard_type":"wildfire","title":"Forest fires in Spain","severity":2,"alert":"Orange","time":1783569600000}},{"type":"Feature","geometry":{"type":"Point","coordinates":[2.5677,42.6724]},"properties":{"id":"1029331","source":"gdacs","hazard_type":"wildfire","title":"Forest fires in France","severity":2,"alert":"Orange","time":1783137600000}},{"type":"Feature","geometry":{"type":"Point","coordinates":[-8.2824,40.6204]},"properties":{"id":"1029260","source":"gdacs","hazard_type":"wildfire","title":"Forest fires in Portugal","severity":2,"alert":"Orange","time":1782964800000}},{"type":"Feature","geometry":{"type":"Point","coordinates":[107.9,21.6]},"properties":{"id":"1001281","source":"gdacs","hazard_type":"cyclone","title":"Tropical Cyclone MAYSAK-26","severity":2,"alert":"Orange","time":1782943200000}},{"type":"Feature","geometry":{"type":"Point","coordinates":[125.1965,5.2392]},"properties":{"id":"1548668","source":"gdacs","hazard_type":"earthquake","title":"Earthquake in Philippines","severity":2,"alert":"Orange","time":1782488081000}},{"type":"Feature","geometry":{"type":"Point","coordinates":[-68.5139,10.453]},"properties":{"id":"1548377","source":"gdacs","hazard_type":"earthquake","title":"Earthquake in Venezuela","severity":3,"alert":"Red","time":1782353112000}},{"type":"Feature","geometry":{"type":"Point","coordinates":[-68.5277,10.436]},"properties":{"id":"1548473","source":"gdacs","hazard_type":"earthquake","title":"Earthquake in Venezuela","severity":3,"alert":"Red","time":1782353072000}},{"type":"Feature","geometry":{"type":"Point","coordinates":[95.4028,37.8888]},"properties":{"id":"1546719","source":"gdacs","hazard_type":"earthquake","title":"Earthquake in China","severity":2,"alert":"Orange","time":1781615215000}},{"type":"Feature","geometry":{"type":"Point","coordinates":[120.2301,-1.1312]},"properties":{"id":"1546617","source":"gdacs","hazard_type":"earthquake","title":"Earthquake in Indonesia","severity":2,"alert":"Orange","time":1781594864000}},{"type":"Feature","geometry":{"type":"Point","coordinates":[125.0469,5.5918]},"properties":{"id":"1544720","source":"gdacs","hazard_type":"earthquake","title":"Earthquake in Philippines","severity":2,"alert":"Orange","time":1780889860000}},{"type":"Feature","geometry":{"type":"Point","coordinates":[109.2073,24.4799]},"properties":{"id":"1541314","source":"gdacs","hazard_type":"earthquake","title":"Earthquake in China","severity":2,"alert":"Orange","time":1779126266000}},{"type":"Feature","geometry":{"type":"Point","coordinates":[127.8783,1.6992]},"properties":{"id":"1000140","source":"gdacs","hazard_type":"volcano","title":"Eruption  Dukono","severity":2,"alert":"Orange","time":1778245800000}},{"type":"Feature","geometry":{"type":"Point","coordinates":[143.0462,39.9532]},"properties":{"id":"1536386","source":"gdacs","hazard_type":"earthquake","title":"Earthquake in Japan","severity":2,"alert":"Orange","time":1776685980000}},{"type":"Feature","geometry":{"type":"Point","coordinates":[-60.785,-34.19]},"properties":{"id":"1018327","source":"gdacs","hazard_type":"other","title":"Drought in Argentina, Uruguay","severity":2,"alert":"Orange","time":1763701200000}},{"type":"Feature","geometry":{"type":"Point","coordinates":[156.1,28.7]},"properties":{"id":"1001270","source":"gdacs","hazard_type":"cyclone","title":"Tropical Cyclone SINLAKU-26","severity":3,"alert":"Red","time":1775707200000}},{"type":"Feature","geometry":{"type":"Point","coordinates":[63.9466,32.1032]},"properties":{"id":"1103815","source":"gdacs","hazard_type":"flood","title":"Flood in Afghanistan","severity":2,"alert":"Orange","time":1774414800000}},{"type":"Feature","geometry":{"type":"Point","coordinates":[-70.5265,-9.0479]},"properties":{"id":"1103757","source":"gdacs","hazard_type":"flood","title":"Flood in Brazil","severity":2,"alert":"Orange","time":1770098400000}},{"type":"Feature","geometry":{"type":"Point","coordinates":[43.899,2.053]},"properties":{"id":"1017863","source":"gdacs","hazard_type":"other","title":"Drought in Kenya, Somalia","severity":2,"alert":"Orange","time":1747800000000}},{"type":"Feature","geometry":{"type":"Point","coordinates":[123.132,10.412]},"properties":{"id":"1000138","source":"gdacs","hazard_type":"volcano","title":"Eruption  Kanlaon","severity":2,"alert":"Orange","time":1773586440000}},{"type":"Feature","geometry":{"type":"Point","coordinates":[37.2621,6.1701]},"properties":{"id":"1103798","source":"gdacs","hazard_type":"flood","title":"Flood in Ethiopia","severity":2,"alert":"Orange","time":1773032400000}},{"type":"Feature","geometry":{"type":"Point","coordinates":[28.7062,-0.5646]},"properties":{"id":"1103784","source":"gdacs","hazard_type":"flood","title":"Flood in Democratic Republic of Congo","severity":2,"alert":"Orange","time":1770789600000}},{"type":"Feature","geometry":{"type":"Point","coordinates":[89.1394,22.4513]},"properties":{"id":"1526507","source":"gdacs","hazard_type":"earthquake","title":"Earthquake in Bangladesh","severity":2,"alert":"Orange","time":1772196744000}},{"type":"Feature","geometry":{"type":"Point","coordinates":[41.6,-35.63]},"properties":{"id":"1001256","source":"gdacs","hazard_type":"cyclone","title":"Tropical Cyclone GEZANI-26","severity":3,"alert":"Red","time":1770354000000}},{"type":"Feature","geometry":{"type":"Point","coordinates":[54.85,-23.41]},"properties":{"id":"1001254","source":"gdacs","hazard_type":"cyclone","title":"Tropical Cyclone FYTIA-26","severity":2,"alert":"Orange","time":1769706000000}},{"type":"Feature","geometry":{"type":"Point","coordinates":[34.7383,-20.1562]},"properties":{"id":"1103694","source":"gdacs","hazard_type":"flood","title":"Flood in Mozambique","severity":2,"alert":"Orange","time":1766383200000}},{"type":"Feature","geometry":{"type":"Point","coordinates":[-72.9302,-36.7946]},"properties":{"id":"1027016","source":"gdacs","hazard_type":"wildfire","title":"Forest fires in Chile","severity":2,"alert":"Orange","time":1768626000000}},{"type":"Feature","geometry":{"type":"Point","coordinates":[29.3959,-23.4735]},"properties":{"id":"1103735","source":"gdacs","hazard_type":"flood","title":"Flood in Mozambique, South Africa, Zimbabwe","severity":2,"alert":"Orange","time":1768842000000}},{"type":"Feature","geometry":{"type":"Point","coordinates":[117.1462,-8.7893]},"properties":{"id":"1103633","source":"gdacs","hazard_type":"flood","title":"Flood in Indonesia","severity":2,"alert":"Orange","time":1763359200000}},{"type":"Feature","geometry":{"type":"Point","coordinates":[100.5684,13.8284]},"properties":{"id":"1103663","source":"gdacs","hazard_type":"flood","title":"Flood in Malaysia, Thailand","severity":2,"alert":"Orange","time":1765562400000}},{"type":"Feature","geometry":{"type":"Point","coordinates":[100.5684,13.8284]},"properties":{"id":"1103646","source":"gdacs","hazard_type":"flood","title":"Flood in Indonesia, Malaysia, Thailand","severity":3,"alert":"Red","time":1764741600000}},{"type":"Feature","geometry":{"type":"Point","coordinates":[80.6401,7.2143]},"properties":{"id":"1103640","source":"gdacs","hazard_type":"flood","title":"Flood in Sri Lanka","severity":2,"alert":"Orange","time":1764309600000}},{"type":"Feature","geometry":{"type":"Point","coordinates":[101.141,6.3345]},"properties":{"id":"1103621","source":"gdacs","hazard_type":"flood","title":"Flood in Thailand","severity":2,"alert":"Orange","time":1763359200000}},{"type":"Feature","geometry":{"type":"Point","coordinates":[80.8,10.5]},"properties":{"id":"1001238","source":"gdacs","hazard_type":"cyclone","title":"Tropical Cyclone DITWAH-25","severity":2,"alert":"Orange","time":1764219600000}},{"type":"Feature","geometry":{"type":"Point","coordinates":[112.922,-8.108]},"properties":{"id":"1000125","source":"gdacs","hazard_type":"volcano","title":"Eruption  Semeru","severity":3,"alert":"Red","time":1763571600000}},{"type":"Feature","geometry":{"type":"Point","coordinates":[90.6489,23.8079]},"properties":{"id":"1511252","source":"gdacs","hazard_type":"earthquake","title":"Earthquake in Bangladesh","severity":2,"alert":"Orange","time":1763717908000}},{"type":"Feature","geometry":{"type":"Point","coordinates":[128.3,26.3]},"properties":{"id":"1001234","source":"gdacs","hazard_type":"cyclone","title":"Tropical Cyclone FUNG-WONG-25","severity":3,"alert":"Red","time":1762254000000}},{"type":"Feature","geometry":{"type":"Point","coordinates":[109.1,13.6]},"properties":{"id":"1001233","source":"gdacs","hazard_type":"cyclone","title":"Tropical Cyclone KALMAEGI-25","severity":3,"alert":"Red","time":1761991200000}},{"type":"Feature","geometry":{"type":"Point","coordinates":[67.4843,36.5894]},"properties":{"id":"1508467","source":"gdacs","hazard_type":"earthquake","title":"Earthquake in Afghanistan","severity":3,"alert":"Red","time":1762133342000}},{"type":"Feature","geometry":{"type":"Point","coordinates":[-60.5,39]},"properties":{"id":"1001230","source":"gdacs","hazard_type":"cyclone","title":"Tropical Cyclone MELISSA-25","severity":3,"alert":"Red","time":1761073200000}},{"type":"Feature","geometry":{"type":"Point","coordinates":[-76.4272,20.3701]},"properties":{"id":"1103585","source":"gdacs","hazard_type":"flood","title":"Flood in Cuba","severity":2,"alert":"Orange","time":1761627600000}},{"type":"Feature","geometry":{"type":"Point","coordinates":[81.4,16.9]},"properties":{"id":"1001232","source":"gdacs","hazard_type":"cyclone","title":"Tropical Cyclone MONTHA-25","severity":2,"alert":"Orange","time":1761494400000}},{"type":"Feature","geometry":{"type":"Point","coordinates":[28.2462,39.1921]},"properties":{"id":"1507329","source":"gdacs","hazard_type":"earthquake","title":"Earthquake in Türkiye","severity":2,"alert":"Orange","time":1761608909000}},{"type":"Feature","geometry":{"type":"Point","coordinates":[108.6,16]},"properties":{"id":"1001229","source":"gdacs","hazard_type":"cyclone","title":"Tropical Cyclone FENGSHEN-25","severity":2,"alert":"Orange","time":1760760000000}},{"type":"Feature","geometry":{"type":"Point","coordinates":[122.775,-8.542]},"properties":{"id":"1000122","source":"gdacs","hazard_type":"volcano","title":"Eruption  Lewotobi","severity":2,"alert":"Orange","time":1760493600000}},{"type":"Feature","geometry":{"type":"Point","coordinates":[123.9375,10.9457]},"properties":{"id":"1504796","source":"gdacs","hazard_type":"earthquake","title":"Earthquake in Philippines","severity":2,"alert":"Orange","time":1760303159000}},{"type":"Feature","geometry":{"type":"Point","coordinates":[39.8663,13.7902]},"properties":{"id":"1504616","source":"gdacs","hazard_type":"earthquake","title":"Earthquake in Ethiopia","severity":2,"alert":"Orange","time":1760213905000}},{"type":"Feature","geometry":{"type":"Point","coordinates":[126.7545,7.2649]},"properties":{"id":"1504268","source":"gdacs","hazard_type":"earthquake","title":"Earthquake in Philippines","severity":2,"alert":"Orange","time":1760075039000}},{"type":"Feature","geometry":{"type":"Point","coordinates":[5.6575,13.7542]},"properties":{"id":"1103479","source":"gdacs","hazard_type":"flood","title":"Flood in Nigeria","severity":2,"alert":"Orange","time":1756616400000}},{"type":"Feature","geometry":{"type":"Point","coordinates":[99.92,30.9113]},"properties":{"id":"1504188","source":"gdacs","hazard_type":"earthquake","title":"Earthquake in China","severity":2,"alert":"Orange","time":1760001460000}},{"type":"Feature","geometry":{"type":"Point","coordinates":[76.6203,31.3678]},"properties":{"id":"1103434","source":"gdacs","hazard_type":"flood","title":"Flood in India","severity":2,"alert":"Orange","time":1755320400000}},{"type":"Feature","geometry":{"type":"Point","coordinates":[87.9248,26.94]},"properties":{"id":"1103540","source":"gdacs","hazard_type":"flood","title":"Flood in Nepal","severity":2,"alert":"Orange","time":1759464000000}},{"type":"Feature","geometry":{"type":"Point","coordinates":[108.5,21.9]},"properties":{"id":"1001219","source":"gdacs","hazard_type":"cyclone","title":"Tropical Cyclone MATMO-25","severity":3,"alert":"Red","time":1759312800000}},{"type":"Feature","geometry":{"type":"Point","coordinates":[84.7,19.5]},"properties":{"id":"1001218","source":"gdacs","hazard_type":"cyclone","title":"Tropical Cyclone ONE-25","severity":2,"alert":"Orange","time":1759312800000}},{"type":"Feature","geometry":{"type":"Point","coordinates":[124.1376,11.1514]},"properties":{"id":"1502713","source":"gdacs","hazard_type":"earthquake","title":"Earthquake in Philippines","severity":2,"alert":"Orange","time":1759255183000}},{"type":"Feature","geometry":{"type":"Point","coordinates":[106.2,18.2]},"properties":{"id":"1001214","source":"gdacs","hazard_type":"cyclone","title":"Tropical Cyclone BUALOI-25","severity":3,"alert":"Red","time":1758643200000}},{"type":"Feature","geometry":{"type":"Point","coordinates":[44.9167,12.8333]},"properties":{"id":"1103504","source":"gdacs","hazard_type":"flood","title":"Flood in Yemen","severity":2,"alert":"Orange","time":1757998800000}},{"type":"Feature","geometry":{"type":"Point","coordinates":[-70.6916,9.9272]},"properties":{"id":"1501948","source":"gdacs","hazard_type":"earthquake","title":"Earthquake in Venezuela","severity":2,"alert":"Orange","time":1758786699000}},{"type":"Feature","geometry":{"type":"Point","coordinates":[114.1849,22.3506]},"properties":{"id":"1103514","source":"gdacs","hazard_type":"flood","title":"Flood in China","severity":3,"alert":"Red","time":1758603600000}},{"type":"Feature","geometry":{"type":"Point","coordinates":[-70.7174,9.9222]},"properties":{"id":"1501915","source":"gdacs","hazard_type":"earthquake","title":"Earthquake in Venezuela","severity":2,"alert":"Orange","time":1758766915000}},{"type":"Feature","geometry":{"type":"Point","coordinates":[111.1,21.8]},"properties":{"id":"1001211","source":"gdacs","hazard_type":"cyclone","title":"Tropical Cyclone RAGASA-25","severity":3,"alert":"Red","time":1758211200000}},{"type":"Feature","geometry":{"type":"Point","coordinates":[-117.0244,34.8986]},"properties":{"id":"1103339","source":"gdacs","hazard_type":"flood","title":"Flood in United States","severity":2,"alert":"Orange","time":1749963600000}},{"type":"Feature","geometry":{"type":"Point","coordinates":[33,9]},"properties":{"id":"1103506","source":"gdacs","hazard_type":"flood","title":"Flood in South Sudan","severity":2,"alert":"Orange","time":1752555600000}},{"type":"Feature","geometry":{"type":"Point","coordinates":[160.5129,53.1928]},"properties":{"id":"1500811","source":"gdacs","hazard_type":"earthquake","title":"Earthquake in Russia","severity":2,"alert":"Orange","time":1758236292000}},{"type":"Feature","geometry":{"type":"Point","coordinates":[92.1963,26.6066]},"properties":{"id":"1500178","source":"gdacs","hazard_type":"earthquake","title":"Earthquake in India","severity":2,"alert":"Orange","time":1757862711000}},{"type":"Feature","geometry":{"type":"Point","coordinates":[112.6,21.8]},"properties":{"id":"1001206","source":"gdacs","hazard_type":"cyclone","title":"Tropical Cyclone TAPAH-25","severity":2,"alert":"Orange","time":1757152800000}},{"type":"Feature","geometry":{"type":"Point","coordinates":[70.6696,34.549]},"properties":{"id":"1499045","source":"gdacs","hazard_type":"earthquake","title":"Earthquake in Afghanistan","severity":2,"alert":"Orange","time":1757107550000}}]}