{"type":"FeatureCollection","generated":1788050590897,"features":[{"type":"Feature","geometry":{"type":"Point","coordinates":[19.8822,40.1538,10]},"properties":{"id":"us7000tcvf","source":"usgs","hazard_type":"earthquake","title":"13 km ENE of Himarë, Albania","magnitude":4.8,"severity":0,"alert":null,"time":1788042922010}},{"type":"Feature","geometry":{"type":"Point","coordinates":[131.0784,29.9927,35]},"properties":{"id":"us7000tcv5","source":"usgs","hazard_type":"earthquake","title":"58 km ESE of Koshima, Japan","magnitude":4.8,"severity":0,"alert":null,"time":1788037219499}},{"type":"Feature","geometry":{"type":"Point","coordinates":[140.9937,35.8029,34.783]},"properties":{"id":"us7000tcu2","source":"usgs","hazard_type":"earthquake","title":"16 km ENE of Hasaki, Japan","magnitude":4.7,"severity":0,"alert":null,"time":1788016626003}},{"type":"Feature","geometry":{"type":"Point","coordinates":[-156.951,54.821,5]},"properties":{"id":"aka2026rcluqc","source":"usgs","hazard_type":"earthquake","title":"184 km SE of Perryville, Alaska","magnitude":4.8,"severity":0,"alert":null,"time":1788016615105}},{"type":"Feature","geometry":{"type":"Point","coordinates":[-76.8503,4.5688,58.147]},"properties":{"id":"us7000tcth","source":"usgs","hazard_type":"earthquake","title":"24 km WSW of Sipí, Colombia","magnitude":4.5,"severity":0,"alert":null,"time":1788000624152}},{"type":"Feature","geometry":{"type":"Point","coordinates":[127.2223,-8.588,10]},"properties":{"id":"us7000tct6","source":"usgs","hazard_type":"earthquake","title":"25 km ESE of Lospalos, Timor Leste","magnitude":4.7,"severity":0,"alert":null,"time":1787994946801}},{"type":"Feature","geometry":{"type":"Point","coordinates":[126.9069,-0.7032,41.899]},"properties":{"id":"us7000tcsu","source":"usgs","hazard_type":"earthquake","title":"64 km W of Labuha, Indonesia","magnitude":5,"severity":1,"alert":null,"time":1787990925662}},{"type":"Feature","geometry":{"type":"Point","coordinates":[-25.7887,-57.4587,89.886]},"properties":{"id":"us7000tcsm","source":"usgs","hazard_type":"earthquake","title":"South Sandwich Islands region","magnitude":4.9,"severity":0,"alert":null,"time":1787987454010}},{"type":"Feature","geometry":{"type":"Point","coordinates":[126.3482,9.976,60.935]},"properties":{"id":"us7000tcsc","source":"usgs","hazard_type":"earthquake","title":"29 km ENE of Pilar, Philippines","magnitude":4.8,"severity":0,"alert":null,"time":1787985174139}},{"type":"Feature","geometry":{"type":"Point","coordinates":[56.9522,-31.8483,10]},"properties":{"id":"us7000tcs7","source":"usgs","hazard_type":"earthquake","title":"Southwest Indian Ridge","magnitude":5.1,"severity":1,"alert":null,"time":1787982006207}},{"type":"Feature","geometry":{"type":"Point","coordinates":[149.9582,44.8019,43.998]},"properties":{"id":"us7000tcrx","source":"usgs","hazard_type":"earthquake","title":"170 km ESE of Kuril’sk, Russia","magnitude":4.6,"severity":0,"alert":null,"time":1787978922059}},{"type":"Feature","geometry":{"type":"Point","coordinates":[-125.272333333333,40.45,10]},"properties":{"id":"nc75426637","source":"usgs","hazard_type":"earthquake","title":"85 km W of Petrolia, CA","magnitude":4.84,"severity":0,"alert":"green","time":1787971271610}},{"type":"Feature","geometry":{"type":"Point","coordinates":[22.7096,37.422,89.639]},"properties":{"id":"us7000tcqr","source":"usgs","hazard_type":"earthquake","title":"2 km NNW of Ástros, Greece","magnitude":4.5,"severity":0,"alert":null,"time":1787961358905}},{"type":"Feature","geometry":{"type":"Point","coordinates":[143.2337,39.6554,34.933]},"properties":{"id":"us7000tcqg","source":"usgs","hazard_type":"earthquake","title":"110 km E of Miyako, Japan","magnitude":4.8,"severity":0,"alert":null,"time":1787958636399}},{"type":"Feature","geometry":{"type":"Point","coordinates":[80.5254,42.2861,10]},"properties":{"id":"us7000tcq8","source":"usgs","hazard_type":"earthquake","title":"124 km N of Aksu, China","magnitude":4.9,"severity":0,"alert":null,"time":1787954853184}},{"type":"Feature","geometry":{"type":"Point","coordinates":[-69.9747,-18.8677,87.955]},"properties":{"id":"us7000tcpf","source":"usgs","hazard_type":"earthquake","title":"38 km NNE of Cuya, Chile","magnitude":4.5,"severity":0,"alert":null,"time":1787949876759}},{"type":"Feature","geometry":{"type":"Point","coordinates":[151.7381,-6.211,10]},"properties":{"id":"us7000tcp5","source":"usgs","hazard_type":"earthquake","title":"191 km ESE of Kimbe, Papua New Guinea","magnitude":5,"severity":1,"alert":null,"time":1787948378305}},{"type":"Feature","geometry":{"type":"Point","coordinates":[62.5441,-28.3225,10]},"properties":{"id":"us7000tcnj","source":"usgs","hazard_type":"earthquake","title":"Southwest Indian Ridge","magnitude":4.9,"severity":0,"alert":null,"time":1787944375174}},{"type":"Feature","geometry":{"type":"Point","coordinates":[-68.5089,-21.2109,131.354]},"properties":{"id":"us7000tcjv","source":"usgs","hazard_type":"earthquake","title":"26 km W of Ollagüe, Chile","magnitude":4.6,"severity":0,"alert":null,"time":1787926314373}},{"type":"Feature","geometry":{"type":"Point","coordinates":[141.2038,-3.6651,10]},"properties":{"id":"us7000tcjf","source":"usgs","hazard_type":"earthquake","title":"109 km S of Vanimo, Papua New Guinea","magnitude":4.5,"severity":0,"alert":null,"time":1787919696915}},{"type":"Feature","geometry":{"type":"Point","coordinates":[127.3738,-6.9733,10]},"properties":{"id":"us7000tcj1","source":"usgs","hazard_type":"earthquake","title":"176 km NNE of Lospalos, Timor Leste","magnitude":4.6,"severity":0,"alert":null,"time":1787912585552}},{"type":"Feature","geometry":{"type":"Point","coordinates":[125.2609,25.8399,131.746]},"properties":{"id":"us7000tcit","source":"usgs","hazard_type":"earthquake","title":"114 km N of Hirara, Japan","magnitude":4.5,"severity":0,"alert":null,"time":1787911893232}},{"type":"Feature","geometry":{"type":"Point","coordinates":[160.6615,52.1245,10]},"properties":{"id":"us7000tcii","source":"usgs","hazard_type":"earthquake","title":"172 km SE of Petropavlovsk-Kamchatsky, Russia","magnitude":5,"severity":1,"alert":null,"time":1787908337255}},{"type":"Feature","geometry":{"type":"Point","coordinates":[168.2841,-19.2675,10]},"properties":{"id":"us7000tcig","source":"usgs","hazard_type":"earthquake","title":"109 km WNW of Isangel, Vanuatu","magnitude":5,"severity":1,"alert":null,"time":1787905955971}},{"type":"Feature","geometry":{"type":"Point","coordinates":[105.229,29.2752,10]},"properties":{"id":"us7000tcht","source":"usgs","hazard_type":"earthquake","title":"19 km NW of Fuji, China","magnitude":5,"severity":1,"alert":null,"time":1787894015070}},{"type":"Feature","geometry":{"type":"Point","coordinates":[111.5852,-50.116,10]},"properties":{"id":"us7000tchl","source":"usgs","hazard_type":"earthquake","title":"southeast Indian Ridge","magnitude":5.2,"severity":1,"alert":null,"time":1787893146623}},{"type":"Feature","geometry":{"type":"Point","coordinates":[-103.4604,8.4191,10]},"properties":{"id":"us7000tch3","source":"usgs","hazard_type":"earthquake","title":"northern East Pacific Rise","magnitude":5,"severity":1,"alert":null,"time":1787884757518}},{"type":"Feature","geometry":{"type":"Point","coordinates":[126.8948,1.7526,74.035]},"properties":{"id":"us7000tcgq","source":"usgs","hazard_type":"earthquake","title":"119 km NNW of Ternate, Indonesia","magnitude":4.6,"severity":0,"alert":null,"time":1787877786031}},{"type":"Feature","geometry":{"type":"Point","coordinates":[-177.6957,-20.3798,520.313]},"properties":{"id":"us7000tcgb","source":"usgs","hazard_type":"earthquake","title":"264 km WNW of Houma, Tonga","magnitude":4.9,"severity":0,"alert":null,"time":1787871778920}},{"type":"Feature","geometry":{"type":"Point","coordinates":[142.2416,42.0315,63.668]},"properties":{"id":"us7000tcfw","source":"usgs","hazard_type":"earthquake","title":"35 km SSW of Shizunai-furukawachō, Japan","magnitude":4.6,"severity":0,"alert":null,"time":1787868811133}},{"type":"Feature","geometry":{"type":"Point","coordinates":[50.5425,13.2654,10]},"properties":{"id":"us7000tcf3","source":"usgs","hazard_type":"earthquake","title":"145 km N of Caluula, Somalia","magnitude":6,"severity":2,"alert":"green","time":1787864858352}},{"type":"Feature","geometry":{"type":"Point","coordinates":[142.2551,40.6244,63.827]},"properties":{"id":"us7000tcef","source":"usgs","hazard_type":"earthquake","title":"63 km NE of Kuji, Japan","magnitude":4.8,"severity":0,"alert":null,"time":1787860481264}},{"type":"Feature","geometry":{"type":"Point","coordinates":[125.6536,6.0157,10]},"properties":{"id":"us7000tcdu","source":"usgs","hazard_type":"earthquake","title":"3 km WNW of Mangili, Philippines","magnitude":4.9,"severity":0,"alert":null,"time":1787856220284}},{"type":"Feature","geometry":{"type":"Point","coordinates":[-69.6195,-17.5572,141.956]},"properties":{"id":"us7000tcc3","source":"usgs","hazard_type":"earthquake","title":"42 km E of Estique, Peru","magnitude":4.5,"severity":0,"alert":null,"time":1787852441549}},{"type":"Feature","geometry":{"type":"Point","coordinates":[120.3479,-7.8456,10]},"properties":{"id":"us7000tcaf","source":"usgs","hazard_type":"earthquake","title":"85 km N of Ruteng, Indonesia","magnitude":4.8,"severity":0,"alert":null,"time":1787848319641}},{"type":"Feature","geometry":{"type":"Point","coordinates":[-76.6738,4.5178,63.976]},"properties":{"id":"us7000tca5","source":"usgs","hazard_type":"earthquake","title":"15 km SSW of Sipí, Colombia","magnitude":4.5,"severity":0,"alert":null,"time":1787847682987}},{"type":"Feature","geometry":{"type":"Point","coordinates":[-76.6986,4.5157,65.125]},"properties":{"id":"us7000tc9s","source":"usgs","hazard_type":"earthquake","title":"16 km SSW of Sipí, Colombia","magnitude":4.7,"severity":0,"alert":null,"time":1787844329295}},{"type":"Feature","geometry":{"type":"Point","coordinates":[86.9395,33.2423,10]},"properties":{"id":"us7000tc9m","source":"usgs","hazard_type":"earthquake","title":"western Xizang","magnitude":5,"severity":1,"alert":null,"time":1787841948054}},{"type":"Feature","geometry":{"type":"Point","coordinates":[-163.4304,53.0654,10]},"properties":{"id":"us7000tc9g","source":"usgs","hazard_type":"earthquake","title":"195 km SE of Akutan, Alaska","magnitude":4.8,"severity":0,"alert":null,"time":1787841020017}},{"type":"Feature","geometry":{"type":"Point","coordinates":[70.7736,-26.0744,10]},"properties":{"id":"us7000tc95","source":"usgs","hazard_type":"earthquake","title":"Indian Ocean Triple Junction","magnitude":4.9,"severity":0,"alert":null,"time":1787831236381}},{"type":"Feature","geometry":{"type":"Point","coordinates":[120.0539,-8.0324,10]},"properties":{"id":"us7000tc8j","source":"usgs","hazard_type":"earthquake","title":"54 km NNE of Labuan Bajo, Indonesia","magnitude":5.3,"severity":1,"alert":null,"time":1787826804325}},{"type":"Feature","geometry":{"type":"Point","coordinates":[160.2665,51.4769,10]},"properties":{"id":"us7000tc8e","source":"usgs","hazard_type":"earthquake","title":"205 km SE of Vilyuchinsk, Russia","magnitude":4.5,"severity":0,"alert":null,"time":1787823239785}},{"type":"Feature","geometry":{"type":"Point","coordinates":[142.7624,24.2906,10]},"properties":{"id":"us7000tc7l","source":"usgs","hazard_type":"earthquake","title":"Volcano Islands, Japan region","magnitude":5.3,"severity":1,"alert":null,"time":1787809466043}},{"type":"Feature","geometry":{"type":"Point","coordinates":[-20.2977,-22.5672,10]},"properties":{"id":"us7000tc56","source":"usgs","hazard_type":"earthquake","title":"South Atlantic Ocean","magnitude":5.1,"severity":1,"alert":null,"time":1787804348168}},{"type":"Feature","geometry":{"type":"Point","coordinates":[-71.4471,-35.3195,80.639]},"properties":{"id":"us7000tc3j","source":"usgs","hazard_type":"earthquake","title":"22 km ENE of Talca, Chile","magnitude":4.7,"severity":0,"alert":null,"time":1787782992424}},{"type":"Feature","geometry":{"type":"Point","coordinates":[121.4502,22.8296,42.104]},"properties":{"id":"us7000tc37","source":"usgs","hazard_type":"earthquake","title":"106 km ESE of Yujing, Taiwan","magnitude":4.6,"severity":0,"alert":null,"time":1787780840969}},{"type":"Feature","geometry":{"type":"Point","coordinates":[168.9143,-13.9457,10]},"properties":{"id":"us7000tc21","source":"usgs","hazard_type":"earthquake","title":"147 km E of Sola, Vanuatu","magnitude":4.5,"severity":0,"alert":null,"time":1787773808291}},{"type":"Feature","geometry":{"type":"Point","coordinates":[143.8447,38.1821,16.05]},"properties":{"id":"us7000tc18","source":"usgs","hazard_type":"earthquake","title":"209 km ESE of Ōfunato, Japan","magnitude":5.6,"severity":2,"alert":"green","time":1787772102872}},{"type":"Feature","geometry":{"type":"Point","coordinates":[120.6143,-8.3333,10]},"properties":{"id":"us7000tc0p","source":"usgs","hazard_type":"earthquake","title":"34 km NNE of Ruteng, Indonesia","magnitude":4.7,"severity":0,"alert":null,"time":1787769298482}},{"type":"Feature","geometry":{"type":"Point","coordinates":[120.6979,-8.3107,10]},"properties":{"id":"us7000tc0k","source":"usgs","hazard_type":"earthquake","title":"42 km NE of Ruteng, Indonesia","magnitude":4.9,"severity":0,"alert":null,"time":1787768593728}},{"type":"Feature","geometry":{"type":"Point","coordinates":[-73.0596,6.737,159.913]},"properties":{"id":"us7000tbzn","source":"usgs","hazard_type":"earthquake","title":"4 km E of Jordán, Colombia","magnitude":4.9,"severity":0,"alert":null,"time":1787762714599}},{"type":"Feature","geometry":{"type":"Point","coordinates":[165.7947,-11.0416,71.191]},"properties":{"id":"us7000tbyz","source":"usgs","hazard_type":"earthquake","title":"35 km S of Lata, Solomon Islands","magnitude":4.9,"severity":0,"alert":null,"time":1787754341270}},{"type":"Feature","geometry":{"type":"Point","coordinates":[121.5083,-8.3715,10]},"properties":{"id":"us7000tbyu","source":"usgs","hazard_type":"earthquake","title":"54 km NNW of Ende, Indonesia","magnitude":5,"severity":1,"alert":null,"time":1787753731234}},{"type":"Feature","geometry":{"type":"Point","coordinates":[-65.3176,-57.4436,10]},"properties":{"id":"us7000tbyh","source":"usgs","hazard_type":"earthquake","title":"Drake Passage","magnitude":4.5,"severity":0,"alert":null,"time":1787744301908}},{"type":"Feature","geometry":{"type":"Point","coordinates":[122.3274,21.5368,10]},"properties":{"id":"us7000tby1","source":"usgs","hazard_type":"earthquake","title":"126 km NNE of Basco, Philippines","magnitude":4.6,"severity":0,"alert":null,"time":1787737882122}},{"type":"Feature","geometry":{"type":"Point","coordinates":[121.337,-8.3296,10]},"properties":{"id":"us7000tbxz","source":"usgs","hazard_type":"earthquake","title":"67 km NNW of Ende, Indonesia","magnitude":4.6,"severity":0,"alert":null,"time":1787737654473}},{"type":"Feature","geometry":{"type":"Point","coordinates":[146.4404,44.6862,159.458]},"properties":{"id":"us7000tbxl","source":"usgs","hazard_type":"earthquake","title":"82 km NE of Otrada, Russia","magnitude":4.7,"severity":0,"alert":null,"time":1787729537399}},{"type":"Feature","geometry":{"type":"Point","coordinates":[143.6596,39.7276,10]},"properties":{"id":"us7000tbxf","source":"usgs","hazard_type":"earthquake","title":"147 km E of Miyako, Japan","magnitude":4.8,"severity":0,"alert":null,"time":1787727292876}},{"type":"Feature","geometry":{"type":"Point","coordinates":[11.6756,-52.7725,10]},"properties":{"id":"us7000tbx8","source":"usgs","hazard_type":"earthquake","title":"southwest of Africa","magnitude":4.8,"severity":0,"alert":null,"time":1787723105013}},{"type":"Feature","geometry":{"type":"Point","coordinates":[85.515,28.271,0]},"properties":{"id":"us7000tbwb","source":"usgs","hazard_type":"earthquake","title":"55 km NW of Kodāri̇̄, Nepal","magnitude":5.2,"severity":1,"alert":null,"time":1787712730000}},{"type":"Feature","geometry":{"type":"Point","coordinates":[71.3629,36.4889,93.702]},"properties":{"id":"us7000tbw6","source":"usgs","hazard_type":"earthquake","title":"26 km SW of Ashkāsham, Afghanistan","magnitude":4.5,"severity":0,"alert":null,"time":1787711049415}},{"type":"Feature","geometry":{"type":"Point","coordinates":[127.5468,-6.6192,10]},"properties":{"id":"us7000tbw5","source":"usgs","hazard_type":"earthquake","title":"218 km NNE of Lospalos, Timor Leste","magnitude":4.5,"severity":0,"alert":null,"time":1787709946773}},{"type":"Feature","geometry":{"type":"Point","coordinates":[127.493,-6.6411,11.628]},"properties":{"id":"us7000tbw3","source":"usgs","hazard_type":"earthquake","title":"215 km NNE of Lospalos, Timor Leste","magnitude":4.8,"severity":0,"alert":null,"time":1787708891757}},{"type":"Feature","geometry":{"type":"Point","coordinates":[120.2856,-7.813,10]},"properties":{"id":"us7000tbw1","source":"usgs","hazard_type":"earthquake","title":"87 km NNE of Labuan Bajo, Indonesia","magnitude":4.6,"severity":0,"alert":null,"time":1787707915012}},{"type":"Feature","geometry":{"type":"Point","coordinates":[-19.8654,-0.5066,10]},"properties":{"id":"us7000tc8w","source":"usgs","hazard_type":"earthquake","title":"central Mid-Atlantic Ridge","magnitude":4.7,"severity":0,"alert":null,"time":1787696605237}},{"type":"Feature","geometry":{"type":"Point","coordinates":[120.7135,-8.2554,9.418]},"properties":{"id":"us7000tbup","source":"usgs","hazard_type":"earthquake","title":"47 km NE of Ruteng, Indonesia","magnitude":4.9,"severity":0,"alert":null,"time":1787693039352}},{"type":"Feature","geometry":{"type":"Point","coordinates":[141.8893,37.2686,35]},"properties":{"id":"us7000tbu3","source":"usgs","hazard_type":"earthquake","title":"77 km E of Tomioka, Japan","magnitude":4.7,"severity":0,"alert":null,"time":1787689416308}},{"type":"Feature","geometry":{"type":"Point","coordinates":[170.4985,-14.235,628.976]},"properties":{"id":"us7000tbsj","source":"usgs","hazard_type":"earthquake","title":"Vanuatu region","magnitude":4.5,"severity":0,"alert":null,"time":1787675013830}},{"type":"Feature","geometry":{"type":"Point","coordinates":[-171.8992,-17.4086,10]},"properties":{"id":"us6000tnd7","source":"usgs","hazard_type":"earthquake","title":"258 km SE of Hihifo, Tonga","magnitude":5.2,"severity":1,"alert":null,"time":1787670954340}},{"type":"Feature","geometry":{"type":"Point","coordinates":[120.6333,-8.0758,10]},"properties":{"id":"us6000tnd4","source":"usgs","hazard_type":"earthquake","title":"62 km NNE of Ruteng, Indonesia","magnitude":5,"severity":1,"alert":null,"time":1787669934052}},{"type":"Feature","geometry":{"type":"Point","coordinates":[179.8207,-23.3497,528.283]},"properties":{"id":"us6000tnci","source":"usgs","hazard_type":"earthquake","title":"south of the Fiji Islands","magnitude":5.5,"severity":2,"alert":"green","time":1787659923252}},{"type":"Feature","geometry":{"type":"Point","coordinates":[127.3328,-3.6519,10]},"properties":{"id":"us6000tncc","source":"usgs","hazard_type":"earthquake","title":"94 km W of Ambon, Indonesia","magnitude":4.9,"severity":0,"alert":null,"time":1787657384762}},{"type":"Feature","geometry":{"type":"Point","coordinates":[145.6343,43.045,96.855]},"properties":{"id":"us6000tnbv","source":"usgs","hazard_type":"earthquake","title":"31 km S of Nemuro, Japan","magnitude":5,"severity":1,"alert":null,"time":1787648840740}},{"type":"Feature","geometry":{"type":"Point","coordinates":[121.5709,22.6053,14.608]},"properties":{"id":"us6000tnbm","source":"usgs","hazard_type":"earthquake","title":"108 km NE of Hengchun, Taiwan","magnitude":5.5,"severity":2,"alert":"green","time":1787641210853}},{"type":"Feature","geometry":{"type":"Point","coordinates":[124.4529,3.4176,322.862]},"properties":{"id":"us6000tnbk","source":"usgs","hazard_type":"earthquake","title":"218 km NNW of Manado, Indonesia","magnitude":4.6,"severity":0,"alert":null,"time":1787640500910}},{"type":"Feature","geometry":{"type":"Point","coordinates":[127.5589,-6.6149,10.169]},"properties":{"id":"us6000tnal","source":"usgs","hazard_type":"earthquake","title":"219 km NNE of Lospalos, Timor Leste","magnitude":4.7,"severity":0,"alert":null,"time":1787627179912}},{"type":"Feature","geometry":{"type":"Point","coordinates":[126.8546,9.0329,13.458]},"properties":{"id":"us6000tnai","source":"usgs","hazard_type":"earthquake","title":"61 km ENE of Aras-asan, Philippines","magnitude":4.7,"severity":0,"alert":null,"time":1787623144254}},{"type":"Feature","geometry":{"type":"Point","coordinates":[155.6413,-6.9731,109.317]},"properties":{"id":"us6000tnaa","source":"usgs","hazard_type":"earthquake","title":"74 km SSE of Panguna, Papua New Guinea","magnitude":4.5,"severity":0,"alert":null,"time":1787620945241}},{"type":"Feature","geometry":{"type":"Point","coordinates":[70.463,34.462,10]},"properties":{"id":"us6000tna9","source":"usgs","hazard_type":"earthquake","title":"4 km NNE of Jalālābād, Afghanistan","magnitude":4.9,"severity":0,"alert":"yellow","time":1787620726243}},{"type":"Feature","geometry":{"type":"Point","coordinates":[120.2483,-8.3932,10]},"properties":{"id":"us6000tn9w","source":"usgs","hazard_type":"earthquake","title":"33 km NW of Ruteng, Indonesia","magnitude":4.9,"severity":0,"alert":null,"time":1787616324071}},{"type":"Feature","geometry":{"type":"Point","coordinates":[124.9935,23.7741,10]},"properties":{"id":"us6000tn9r","source":"usgs","hazard_type":"earthquake","title":"103 km SSE of Tarama, Japan","magnitude":4.6,"severity":0,"alert":null,"time":1787614016418}},{"type":"Feature","geometry":{"type":"Point","coordinates":[152.0529,-6.4947,10]},"properties":{"id":"us6000tn8w","source":"usgs","hazard_type":"earthquake","title":"236 km ESE of Kimbe, Papua New Guinea","magnitude":4.6,"severity":0,"alert":null,"time":1787605334533}},{"type":"Feature","geometry":{"type":"Point","coordinates":[127.5019,-6.6912,9.947]},"properties":{"id":"us6000tn80","source":"usgs","hazard_type":"earthquake","title":"209 km NNE of Lospalos, Timor Leste","magnitude":5,"severity":1,"alert":null,"time":1787598003416}},{"type":"Feature","geometry":{"type":"Point","coordinates":[145.6671,18.6438,205.654]},"properties":{"id":"us6000tn6z","source":"usgs","hazard_type":"earthquake","title":"Pagan region, Northern Mariana Islands","magnitude":4.7,"severity":0,"alert":null,"time":1787588724020}},{"type":"Feature","geometry":{"type":"Point","coordinates":[128.6513,26.111,10]},"properties":{"id":"us6000tn4p","source":"usgs","hazard_type":"earthquake","title":"76 km SE of Taira, Japan","magnitude":4.9,"severity":0,"alert":null,"time":1787585252740}},{"type":"Feature","geometry":{"type":"Point","coordinates":[120.4543,-7.7836,10]},"properties":{"id":"us6000tn4m","source":"usgs","hazard_type":"earthquake","title":"91 km N of Ruteng, Indonesia","magnitude":4.8,"severity":0,"alert":null,"time":1787584334584}},{"type":"Feature","geometry":{"type":"Point","coordinates":[127.4598,-6.6264,10]},"properties":{"id":"us6000tn41","source":"usgs","hazard_type":"earthquake","title":"215 km NNE of Lospalos, Timor Leste","magnitude":6,"severity":2,"alert":"green","time":1787580617299}},{"type":"Feature","geometry":{"type":"Point","coordinates":[-13.8368,-17.7036,10]},"properties":{"id":"us6000tn3t","source":"usgs","hazard_type":"earthquake","title":"southern Mid-Atlantic Ridge","magnitude":5,"severity":1,"alert":null,"time":1787574571627}},{"type":"Feature","geometry":{"type":"Point","coordinates":[-171.9977,-18.1013,10]},"properties":{"id":"us6000tn37","source":"usgs","hazard_type":"earthquake","title":"218 km ENE of Neiafu, Tonga","magnitude":4.9,"severity":0,"alert":null,"time":1787566783962}},{"type":"Feature","geometry":{"type":"Point","coordinates":[129.6871,-5.0525,10]},"properties":{"id":"us6000tn33","source":"usgs","hazard_type":"earthquake","title":"207 km SSE of Amahai, Indonesia","magnitude":5.5,"severity":2,"alert":"green","time":1787565778888}},{"type":"Feature","geometry":{"type":"Point","coordinates":[-83.9132,9.9853,10]},"properties":{"id":"us6000tn2j","source":"usgs","hazard_type":"earthquake","title":"10 km NNW of Cot, Costa Rica","magnitude":4.9,"severity":0,"alert":null,"time":1787557037435}},{"type":"Feature","geometry":{"type":"Point","coordinates":[-176.289,-20.9867,209.196]},"properties":{"id":"us6000tn2d","source":"usgs","hazard_type":"earthquake","title":"104 km WNW of Houma, Tonga","magnitude":4.5,"severity":0,"alert":null,"time":1787550047930}},{"type":"Feature","geometry":{"type":"Point","coordinates":[-67.1543,-28.143,129.457]},"properties":{"id":"us6000tn29","source":"usgs","hazard_type":"earthquake","title":"41 km ESE of Tinogasta, Argentina","magnitude":4.5,"severity":0,"alert":null,"time":1787547844171}},{"type":"Feature","geometry":{"type":"Point","coordinates":[125.2291,5.3312,68.263]},"properties":{"id":"us6000tn25","source":"usgs","hazard_type":"earthquake","title":"27 km WSW of Sarangani, Philippines","magnitude":4.8,"severity":0,"alert":null,"time":1787543973162}},{"type":"Feature","geometry":{"type":"Point","coordinates":[-14.921,-12.6363,10]},"properties":{"id":"us6000tn1z","source":"usgs","hazard_type":"earthquake","title":"southern Mid-Atlantic Ridge","magnitude":4.9,"severity":0,"alert":null,"time":1787539508660}},{"type":"Feature","geometry":{"type":"Point","coordinates":[120.4679,-7.9644,10]},"properties":{"id":"us6000tn1v","source":"usgs","hazard_type":"earthquake","title":"71 km N of Ruteng, Indonesia","magnitude":4.7,"severity":0,"alert":null,"time":1787537979063}},{"type":"Feature","geometry":{"type":"Point","coordinates":[120.4857,-8.2203,10]},"properties":{"id":"us6000tn1k","source":"usgs","hazard_type":"earthquake","title":"43 km N of Ruteng, Indonesia","magnitude":4.6,"severity":0,"alert":null,"time":1787533979871}},{"type":"Feature","geometry":{"type":"Point","coordinates":[105.0691,28.3791,44.666]},"properties":{"id":"us6000tn1h","source":"usgs","hazard_type":"earthquake","title":"8 km NNE of Bowangshan, China","magnitude":4.9,"severity":0,"alert":null,"time":1787531186410}},{"type":"Feature","geometry":{"type":"Point","coordinates":[176.3834,52.1941,13.186]},"properties":{"id":"us6000tn19","source":"usgs","hazard_type":"earthquake","title":"228 km ESE of Attu Station, Alaska","magnitude":5,"severity":1,"alert":null,"time":1787527235668}},{"type":"Feature","geometry":{"type":"Point","coordinates":[120.6944,-8.0432,35]},"properties":{"id":"us6000tn14","source":"usgs","hazard_type":"earthquake","title":"67 km NNE of Ruteng, Indonesia","magnitude":4.7,"severity":0,"alert":null,"time":1787525854074}},{"type":"Feature","geometry":{"type":"Point","coordinates":[164.6977,-10.6943,10]},"properties":{"id":"us6000tn0t","source":"usgs","hazard_type":"earthquake","title":"120 km W of Lata, Solomon Islands","magnitude":5.3,"severity":1,"alert":null,"time":1787520740775}},{"type":"Feature","geometry":{"type":"Point","coordinates":[120.8354,-8.1992,10]},"properties":{"id":"us6000tn0s","source":"usgs","hazard_type":"earthquake","title":"61 km NE of Ruteng, Indonesia","magnitude":5.2,"severity":1,"alert":null,"time":1787520015767}},{"type":"Feature","geometry":{"type":"Point","coordinates":[-71.6087,-36.7356,102.487]},"properties":{"id":"us6000tn0n","source":"usgs","hazard_type":"earthquake","title":"23 km ESE of Coihueco, Chile","magnitude":4.5,"severity":0,"alert":null,"time":1787517494973}},{"type":"Feature","geometry":{"type":"Point","coordinates":[126.1936,5.7891,9.989]},"properties":{"id":"us6000tn0a","source":"usgs","hazard_type":"earthquake","title":"61 km ESE of Mangili, Philippines","magnitude":4.7,"severity":0,"alert":null,"time":1787511458731}},{"type":"Feature","geometry":{"type":"Point","coordinates":[-66.457,-23.1294,224.789]},"properties":{"id":"us6000tmzy","source":"usgs","hazard_type":"earthquake","title":"80 km W of El Aguilar, Argentina","magnitude":4.5,"severity":0,"alert":null,"time":1787507790373}},{"type":"Feature","geometry":{"type":"Point","coordinates":[-25.264,-58.7481,35]},"properties":{"id":"us6000tmzw","source":"usgs","hazard_type":"earthquake","title":"South Sandwich Islands region","magnitude":4.9,"severity":0,"alert":null,"time":1787505809822}},{"type":"Feature","geometry":{"type":"Point","coordinates":[142.8825,42.2325,63.193]},"properties":{"id":"us6000tmzm","source":"usgs","hazard_type":"earthquake","title":"11 km NE of Urakawa, Japan","magnitude":4.5,"severity":0,"alert":null,"time":1787502975398}},{"type":"Feature","geometry":{"type":"Point","coordinates":[155.5104,-6.9773,28.59]},"properties":{"id":"us6000tmzd","source":"usgs","hazard_type":"earthquake","title":"73 km S of Panguna, Papua New Guinea","magnitude":4.6,"severity":0,"alert":null,"time":1787493961369}},{"type":"Feature","geometry":{"type":"Point","coordinates":[142.802,41.8495,41]},"properties":{"id":"us6000tmz6","source":"usgs","hazard_type":"earthquake","title":"32 km SSW of Honchō, Japan","magnitude":6,"severity":2,"alert":"green","time":1787492693389}},{"type":"Feature","geometry":{"type":"Point","coordinates":[-14.8524,-12.8299,10]},"properties":{"id":"us6000tmyk","source":"usgs","hazard_type":"earthquake","title":"southern Mid-Atlantic Ridge","magnitude":5.3,"severity":1,"alert":null,"time":1787484161913}},{"type":"Feature","geometry":{"type":"Point","coordinates":[74.4767,36.7596,45.456]},"properties":{"id":"us6000tmy3","source":"usgs","hazard_type":"earthquake","title":"52 km NNW of Barishal, Pakistan","magnitude":4.6,"severity":0,"alert":null,"time":1787479482433}},{"type":"Feature","geometry":{"type":"Point","coordinates":[162.9618,-10.9015,120.328]},"properties":{"id":"us6000tmxn","source":"usgs","hazard_type":"earthquake","title":"124 km ESE of Kirakira, Solomon Islands","magnitude":5.2,"severity":1,"alert":null,"time":1787472758133}},{"type":"Feature","geometry":{"type":"Point","coordinates":[-178.1181,-18.3505,571.282]},"properties":{"id":"us6000tmww","source":"usgs","hazard_type":"earthquake","title":"273 km E of Levuka, Fiji","magnitude":4.6,"severity":0,"alert":null,"time":1787463561468}},{"type":"Feature","geometry":{"type":"Point","coordinates":[96.0025,17.7854,10]},"properties":{"id":"us6000tmwk","source":"usgs","hazard_type":"earthquake","title":"26 km E of Letpandan, Burma (Myanmar)","magnitude":4.6,"severity":0,"alert":null,"time":1787456697056}}]}